<?xml version="1.0" encoding="UTF-8" standalone="no"?><gpx xmlns="http://www.topografix.com/GPX/1/1" xmlns:gpxtpx="http://www.garmin.com/xmlschemas/TrackPointExtension/v1" xmlns:xsi="http://www.w3.org/2001/XMLSchema-instance" creator="Suunto app" version="1.1" xsi:schemaLocation="http://www.topografix.com/GPX/1/1 http://www.topografix.com/GPX/1/1/gpx.xsd http://www.garmin.com/xmlschemas/TrackPointExtension/v1 http://www.garmin.com/xmlschemas/TrackPointExtensionv1.xsd"><metadata><name>suuntoapp-Paragliding-2026-08-23T16-00-40Z</name><desc/><author><name>Isnel Maxime</name></author></metadata><rte><name>suuntoapp-Paragliding-2026-08-23T16-00-40Z</name><rtept lat="45.094578" lon="5.579108"><ele>1035.2</ele></rtept><rtept lat="45.094568" lon="5.579103"><ele>1035.2</ele></rtept><rtept lat="45.094543" lon="5.57909"><ele>1035.2</ele></rtept><rtept lat="45.094515" lon="5.579073"><ele>1035.2</ele></rtept><rtept lat="45.094498" lon="5.57906"><ele>1035.2</ele></rtept><rtept lat="45.09447" lon="5.57905"><ele>1035.2</ele></rtept><rtept lat="45.094443" lon="5.579043"><ele>1034.8</ele></rtept><rtept lat="45.094422" lon="5.579037"><ele>1035.4</ele></rtept><rtept lat="45.0944" lon="5.579022"><ele>1035.4</ele></rtept><rtept lat="45.094373" lon="5.579012"><ele>1035.4</ele></rtept><rtept lat="45.094355" lon="5.579"><ele>1035.4</ele></rtept><rtept lat="45.094332" lon="5.578987"><ele>1035.2</ele></rtept><rtept lat="45.09431" lon="5.578977"><ele>1035.4</ele></rtept><rtept lat="45.094287" lon="5.578962"><ele>1035.4</ele></rtept><rtept lat="45.094268" lon="5.578948"><ele>1035.6</ele></rtept><rtept lat="45.094248" lon="5.578935"><ele>1035.6</ele></rtept><rtept lat="45.094227" lon="5.578925"><ele>1035.6</ele></rtept><rtept lat="45.094203" lon="5.578915"><ele>1035.6</ele></rtept><rtept lat="45.094182" lon="5.57891"><ele>1035.6</ele></rtept><rtept lat="45.094157" lon="5.578895"><ele>1035.4</ele></rtept><rtept lat="45.094133" lon="5.57888"><ele>1035.2</ele></rtept><rtept lat="45.094108" lon="5.57887"><ele>1035.2</ele></rtept><rtept lat="45.094082" lon="5.578862"><ele>1035.4</ele></rtept><rtept lat="45.094063" lon="5.578868"><ele>1035.4</ele></rtept><rtept lat="45.094038" lon="5.57886"><ele>1035.4</ele></rtept><rtept lat="45.094022" lon="5.578848"><ele>1035.2</ele></rtept><rtept lat="45.093997" lon="5.578838"><ele>1035.6</ele></rtept><rtept lat="45.093963" lon="5.57882"><ele>1035.6</ele></rtept><rtept lat="45.093935" lon="5.57882"><ele>1035.4</ele></rtept><rtept lat="45.09391" lon="5.578813"><ele>1035.2</ele></rtept><rtept lat="45.093878" lon="5.5788"><ele>1035.2</ele></rtept><rtept lat="45.093852" lon="5.578798"><ele>1035.4</ele></rtept><rtept lat="45.09383" lon="5.57879"><ele>1035.4</ele></rtept><rtept lat="45.093807" lon="5.578787"><ele>1035.4</ele></rtept><rtept lat="45.093778" lon="5.578778"><ele>1035.4</ele></rtept><rtept lat="45.093753" lon="5.578773"><ele>1035.2</ele></rtept><rtept lat="45.09373" lon="5.57877"><ele>1035.2</ele></rtept><rtept lat="45.093712" lon="5.578768"><ele>1035.2</ele></rtept><rtept lat="45.093688" lon="5.578773"><ele>1035.2</ele></rtept><rtept lat="45.09367" lon="5.578778"><ele>1035.4</ele></rtept><rtept lat="45.09364" lon="5.57878"><ele>1035.6</ele></rtept><rtept lat="45.093615" lon="5.578783"><ele>1035.6</ele></rtept><rtept lat="45.09359" lon="5.57879"><ele>1035.8</ele></rtept><rtept lat="45.093567" lon="5.578793"><ele>1035.6</ele></rtept><rtept lat="45.093545" lon="5.578793"><ele>1035.8</ele></rtept><rtept lat="45.093525" lon="5.578798"><ele>1035.8</ele></rtept><rtept lat="45.09349" lon="5.578793"><ele>1035.8</ele></rtept><rtept lat="45.093472" lon="5.578793"><ele>1035.8</ele></rtept><rtept lat="45.093448" lon="5.578807"><ele>1035.8</ele></rtept><rtept lat="45.093427" lon="5.578818"><ele>1035.8</ele></rtept><rtept lat="45.093398" lon="5.578828"><ele>1035.8</ele></rtept><rtept lat="45.093375" lon="5.578847"><ele>1035.8</ele></rtept><rtept lat="45.093353" lon="5.57886"><ele>1035.8</ele></rtept><rtept lat="45.093333" lon="5.578872"><ele>1035.8</ele></rtept><rtept lat="45.093315" lon="5.57888"><ele>1036.0</ele></rtept><rtept lat="45.093288" lon="5.578898"><ele>1036.2</ele></rtept><rtept lat="45.093263" lon="5.578915"><ele>1035.8</ele></rtept><rtept lat="45.093247" lon="5.578932"><ele>1036.2</ele></rtept><rtept lat="45.093228" lon="5.578952"><ele>1036.2</ele></rtept><rtept lat="45.093202" lon="5.578972"><ele>1036.4</ele></rtept><rtept lat="45.09318" lon="5.57899"><ele>1036.6</ele></rtept><rtept lat="45.093163" lon="5.57901"><ele>1036.6</ele></rtept><rtept lat="45.093142" lon="5.579027"><ele>1036.6</ele></rtept><rtept lat="45.093117" lon="5.579053"><ele>1036.6</ele></rtept><rtept lat="45.093097" lon="5.57907"><ele>1036.6</ele></rtept><rtept lat="45.09308" lon="5.579088"><ele>1037.0</ele></rtept><rtept lat="45.093065" lon="5.57911"><ele>1037.0</ele></rtept><rtept lat="45.093052" lon="5.579133"><ele>1037.2</ele></rtept><rtept lat="45.093037" lon="5.579157"><ele>1037.4</ele></rtept><rtept lat="45.09302" lon="5.579185"><ele>1037.6</ele></rtept><rtept lat="45.093003" lon="5.579205"><ele>1037.6</ele></rtept><rtept lat="45.092992" lon="5.579225"><ele>1038.0</ele></rtept><rtept lat="45.092972" lon="5.57925"><ele>1038.0</ele></rtept><rtept lat="45.092957" lon="5.579265"><ele>1038.0</ele></rtept><rtept lat="45.092937" lon="5.579282"><ele>1038.0</ele></rtept><rtept lat="45.09292" lon="5.579295"><ele>1038.0</ele></rtept><rtept lat="45.092902" lon="5.579325"><ele>1038.0</ele></rtept><rtept lat="45.092892" lon="5.579348"><ele>1038.0</ele></rtept><rtept lat="45.09288" lon="5.579375"><ele>1038.2</ele></rtept><rtept lat="45.092873" lon="5.5794"><ele>1038.4</ele></rtept><rtept lat="45.092857" lon="5.579423"><ele>1038.6</ele></rtept><rtept lat="45.09285" lon="5.579453"><ele>1038.6</ele></rtept><rtept lat="45.092832" lon="5.579477"><ele>1038.6</ele></rtept><rtept lat="45.092815" lon="5.579493"><ele>1038.6</ele></rtept><rtept lat="45.092798" lon="5.57951"><ele>1038.6</ele></rtept><rtept lat="45.092783" lon="5.579523"><ele>1038.6</ele></rtept><rtept lat="45.092755" lon="5.579555"><ele>1038.8</ele></rtept><rtept lat="45.092738" lon="5.57957"><ele>1038.6</ele></rtept><rtept lat="45.092722" lon="5.57959"><ele>1038.6</ele></rtept><rtept lat="45.092707" lon="5.579605"><ele>1038.6</ele></rtept><rtept lat="45.09268" lon="5.57963"><ele>1038.6</ele></rtept><rtept lat="45.092662" lon="5.579642"><ele>1038.8</ele></rtept><rtept lat="45.09264" lon="5.579658"><ele>1039.0</ele></rtept><rtept lat="45.092613" lon="5.579672"><ele>1039.0</ele></rtept><rtept lat="45.092595" lon="5.579678"><ele>1039.0</ele></rtept><rtept lat="45.092565" lon="5.579687"><ele>1039.0</ele></rtept><rtept lat="45.09254" lon="5.579702"><ele>1039.2</ele></rtept><rtept lat="45.092505" lon="5.579712"><ele>1039.2</ele></rtept><rtept lat="45.092473" lon="5.579727"><ele>1039.6</ele></rtept><rtept lat="45.092443" lon="5.579728"><ele>1039.4</ele></rtept><rtept lat="45.092422" lon="5.579728"><ele>1039.2</ele></rtept><rtept lat="45.092397" lon="5.579725"><ele>1039.2</ele></rtept><rtept lat="45.092367" lon="5.57972"><ele>1039.4</ele></rtept><rtept lat="45.092342" lon="5.57971"><ele>1039.6</ele></rtept><rtept lat="45.09232" lon="5.579702"><ele>1039.6</ele></rtept><rtept lat="45.092287" lon="5.579693"><ele>1039.8</ele></rtept><rtept lat="45.092268" lon="5.579693"><ele>1039.8</ele></rtept><rtept lat="45.092242" lon="5.579687"><ele>1039.6</ele></rtept><rtept lat="45.09221" lon="5.579675"><ele>1039.6</ele></rtept><rtept lat="45.092182" lon="5.579667"><ele>1039.8</ele></rtept><rtept lat="45.09215" lon="5.579662"><ele>1039.8</ele></rtept><rtept lat="45.092127" lon="5.579658"><ele>1039.8</ele></rtept><rtept lat="45.092102" lon="5.57966"><ele>1039.8</ele></rtept><rtept lat="45.092077" lon="5.57967"><ele>1039.8</ele></rtept><rtept lat="45.092057" lon="5.579685"><ele>1040.0</ele></rtept><rtept lat="45.09204" lon="5.579707"><ele>1040.2</ele></rtept><rtept lat="45.092032" lon="5.579742"><ele>1040.4</ele></rtept><rtept lat="45.092032" lon="5.57977"><ele>1040.6</ele></rtept><rtept lat="45.092032" lon="5.5798"><ele>1041.0</ele></rtept><rtept lat="45.092032" lon="5.57983"><ele>1041.4</ele></rtept><rtept lat="45.09204" lon="5.579865"><ele>1042.0</ele></rtept><rtept lat="45.09204" lon="5.5799"><ele>1042.2</ele></rtept><rtept lat="45.092043" lon="5.579935"><ele>1042.8</ele></rtept><rtept lat="45.09204" lon="5.579968"><ele>1043.0</ele></rtept><rtept lat="45.09204" lon="5.58"><ele>1043.0</ele></rtept><rtept lat="45.09204" lon="5.580032"><ele>1043.4</ele></rtept><rtept lat="45.092043" lon="5.580072"><ele>1043.8</ele></rtept><rtept lat="45.09204" lon="5.58011"><ele>1044.2</ele></rtept><rtept lat="45.09204" lon="5.580147"><ele>1044.6</ele></rtept><rtept lat="45.092032" lon="5.580168"><ele>1045.0</ele></rtept><rtept lat="45.092032" lon="5.5802"><ele>1045.2</ele></rtept><rtept lat="45.092028" lon="5.58023"><ele>1045.2</ele></rtept><rtept lat="45.092028" lon="5.580258"><ele>1045.6</ele></rtept><rtept lat="45.092028" lon="5.58029"><ele>1045.8</ele></rtept><rtept lat="45.092022" lon="5.580322"><ele>1046.0</ele></rtept><rtept lat="45.092028" lon="5.580352"><ele>1046.4</ele></rtept><rtept lat="45.092038" lon="5.580382"><ele>1046.6</ele></rtept><rtept lat="45.092043" lon="5.580413"><ele>1047.0</ele></rtept><rtept lat="45.092047" lon="5.58044"><ele>1047.4</ele></rtept><rtept lat="45.092057" lon="5.580467"><ele>1047.4</ele></rtept><rtept lat="45.092063" lon="5.5805"><ele>1047.4</ele></rtept><rtept lat="45.092077" lon="5.580527"><ele>1047.6</ele></rtept><rtept lat="45.092082" lon="5.580553"><ele>1047.6</ele></rtept><rtept lat="45.092098" lon="5.580577"><ele>1047.8</ele></rtept><rtept lat="45.092112" lon="5.580605"><ele>1048.0</ele></rtept><rtept lat="45.092127" lon="5.580635"><ele>1048.0</ele></rtept><rtept lat="45.092147" lon="5.580655"><ele>1048.2</ele></rtept><rtept lat="45.092162" lon="5.580682"><ele>1048.2</ele></rtept><rtept lat="45.092182" lon="5.580705"><ele>1048.4</ele></rtept><rtept lat="45.092207" lon="5.580727"><ele>1048.2</ele></rtept><rtept lat="45.09223" lon="5.580748"><ele>1048.8</ele></rtept><rtept lat="45.092248" lon="5.58077"><ele>1049.2</ele></rtept><rtept lat="45.092268" lon="5.58079"><ele>1049.2</ele></rtept><rtept lat="45.092283" lon="5.580803"><ele>1049.4</ele></rtept><rtept lat="45.092307" lon="5.58082"><ele>1049.4</ele></rtept><rtept lat="45.092328" lon="5.580837"><ele>1049.6</ele></rtept><rtept lat="45.092348" lon="5.58085"><ele>1049.8</ele></rtept><rtept lat="45.092377" lon="5.580867"><ele>1050.0</ele></rtept><rtept lat="45.0924" lon="5.58088"><ele>1050.0</ele></rtept><rtept lat="45.092418" lon="5.580893"><ele>1050.0</ele></rtept><rtept lat="45.09244" lon="5.580907"><ele>1050.2</ele></rtept><rtept lat="45.09246" lon="5.580922"><ele>1050.8</ele></rtept><rtept lat="45.092485" lon="5.580942"><ele>1050.8</ele></rtept><rtept lat="45.092508" lon="5.580953"><ele>1051.0</ele></rtept><rtept lat="45.092527" lon="5.580968"><ele>1051.4</ele></rtept><rtept lat="45.092547" lon="5.580985"><ele>1051.4</ele></rtept><rtept lat="45.092565" lon="5.581"><ele>1051.6</ele></rtept><rtept lat="45.092588" lon="5.581018"><ele>1052.0</ele></rtept><rtept lat="45.092607" lon="5.581032"><ele>1052.2</ele></rtept><rtept lat="45.092633" lon="5.581045"><ele>1052.2</ele></rtept><rtept lat="45.092652" lon="5.581058"><ele>1052.4</ele></rtept><rtept lat="45.092678" lon="5.581082"><ele>1052.6</ele></rtept><rtept lat="45.0927" lon="5.581097"><ele>1053.0</ele></rtept><rtept lat="45.09272" lon="5.581112"><ele>1053.2</ele></rtept><rtept lat="45.092738" lon="5.581127"><ele>1053.0</ele></rtept><rtept lat="45.092758" lon="5.581142"><ele>1053.8</ele></rtept><rtept lat="45.092777" lon="5.58116"><ele>1053.8</ele></rtept><rtept lat="45.092798" lon="5.581183"><ele>1053.8</ele></rtept><rtept lat="45.092822" lon="5.5812"><ele>1053.6</ele></rtept><rtept lat="45.092843" lon="5.581218"><ele>1054.0</ele></rtept><rtept lat="45.09287" lon="5.581237"><ele>1054.4</ele></rtept><rtept lat="45.092892" lon="5.581258"><ele>1054.4</ele></rtept><rtept lat="45.092915" lon="5.581273"><ele>1054.6</ele></rtept><rtept lat="45.09293" lon="5.581295"><ele>1054.6</ele></rtept><rtept lat="45.09295" lon="5.58131"><ele>1054.8</ele></rtept><rtept lat="45.092972" lon="5.58133"><ele>1055.2</ele></rtept><rtept lat="45.092995" lon="5.581345"><ele>1055.4</ele></rtept><rtept lat="45.093013" lon="5.58136"><ele>1055.6</ele></rtept><rtept lat="45.093033" lon="5.58138"><ele>1055.8</ele></rtept><rtept lat="45.093055" lon="5.581402"><ele>1055.8</ele></rtept><rtept lat="45.093075" lon="5.581422"><ele>1056.0</ele></rtept><rtept lat="45.093097" lon="5.581442"><ele>1056.2</ele></rtept><rtept lat="45.093113" lon="5.581455"><ele>1056.2</ele></rtept><rtept lat="45.093132" lon="5.581487"><ele>1056.4</ele></rtept><rtept lat="45.093152" lon="5.58152"><ele>1056.4</ele></rtept><rtept lat="45.093163" lon="5.581553"><ele>1056.8</ele></rtept><rtept lat="45.09318" lon="5.581583"><ele>1056.8</ele></rtept><rtept lat="45.09319" lon="5.58162"><ele>1056.8</ele></rtept><rtept lat="45.093193" lon="5.581655"><ele>1057.0</ele></rtept><rtept lat="45.093193" lon="5.581695"><ele>1057.6</ele></rtept><rtept lat="45.093197" lon="5.581722"><ele>1058.0</ele></rtept><rtept lat="45.093197" lon="5.581755"><ele>1058.2</ele></rtept><rtept lat="45.093197" lon="5.581782"><ele>1058.6</ele></rtept><rtept lat="45.093197" lon="5.581812"><ele>1059.0</ele></rtept><rtept lat="45.09319" lon="5.581847"><ele>1059.4</ele></rtept><rtept lat="45.09319" lon="5.58188"><ele>1059.4</ele></rtept><rtept lat="45.09318" lon="5.581913"><ele>1059.8</ele></rtept><rtept lat="45.093177" lon="5.58195"><ele>1060.2</ele></rtept><rtept lat="45.09318" lon="5.581983"><ele>1060.2</ele></rtept><rtept lat="45.09317" lon="5.582012"><ele>1060.4</ele></rtept><rtept lat="45.093158" lon="5.582045"><ele>1061.0</ele></rtept><rtept lat="45.093142" lon="5.582072"><ele>1061.4</ele></rtept><rtept lat="45.093122" lon="5.5821"><ele>1061.6</ele></rtept><rtept lat="45.093103" lon="5.582125"><ele>1061.4</ele></rtept><rtept lat="45.09309" lon="5.582142"><ele>1061.4</ele></rtept><rtept lat="45.093072" lon="5.582162"><ele>1061.8</ele></rtept><rtept lat="45.093042" lon="5.582183"><ele>1061.6</ele></rtept><rtept lat="45.09302" lon="5.582203"><ele>1061.8</ele></rtept><rtept lat="45.092998" lon="5.582223"><ele>1061.8</ele></rtept><rtept lat="45.092975" lon="5.582238"><ele>1062.0</ele></rtept><rtept lat="45.092953" lon="5.582258"><ele>1062.4</ele></rtept><rtept lat="45.09293" lon="5.582273"><ele>1062.4</ele></rtept><rtept lat="45.092905" lon="5.582293"><ele>1062.8</ele></rtept><rtept lat="45.092885" lon="5.582313"><ele>1063.0</ele></rtept><rtept lat="45.092863" lon="5.582333"><ele>1063.2</ele></rtept><rtept lat="45.09285" lon="5.582355"><ele>1063.2</ele></rtept><rtept lat="45.092825" lon="5.582375"><ele>1063.6</ele></rtept><rtept lat="45.092812" lon="5.582398"><ele>1063.8</ele></rtept><rtept lat="45.092793" lon="5.58242"><ele>1063.8</ele></rtept><rtept lat="45.092773" lon="5.582442"><ele>1063.8</ele></rtept><rtept lat="45.092755" lon="5.58246"><ele>1064.2</ele></rtept><rtept lat="45.092738" lon="5.58248"><ele>1064.2</ele></rtept><rtept lat="45.09272" lon="5.582493"><ele>1064.6</ele></rtept><rtept lat="45.092703" lon="5.58251"><ele>1064.6</ele></rtept><rtept lat="45.092693" lon="5.582537"><ele>1065.0</ele></rtept><rtept lat="45.092672" lon="5.582553"><ele>1065.2</ele></rtept><rtept lat="45.092655" lon="5.58258"><ele>1065.6</ele></rtept><rtept lat="45.09264" lon="5.582608"><ele>1065.6</ele></rtept><rtept lat="45.092627" lon="5.582627"><ele>1065.6</ele></rtept><rtept lat="45.092607" lon="5.582653"><ele>1065.8</ele></rtept><rtept lat="45.092588" lon="5.582678"><ele>1066.0</ele></rtept><rtept lat="45.092572" lon="5.58271"><ele>1066.4</ele></rtept><rtept lat="45.092557" lon="5.58273"><ele>1066.6</ele></rtept><rtept lat="45.09254" lon="5.582752"><ele>1066.8</ele></rtept><rtept lat="45.092523" lon="5.582785"><ele>1067.0</ele></rtept><rtept lat="45.092515" lon="5.582815"><ele>1067.2</ele></rtept><rtept lat="45.092498" lon="5.582837"><ele>1067.6</ele></rtept><rtept lat="45.09248" lon="5.58287"><ele>1067.8</ele></rtept><rtept lat="45.092467" lon="5.582907"><ele>1068.0</ele></rtept><rtept lat="45.092447" lon="5.582923"><ele>1068.0</ele></rtept><rtept lat="45.092428" lon="5.582937"><ele>1068.4</ele></rtept><rtept lat="45.092405" lon="5.582958"><ele>1068.6</ele></rtept><rtept lat="45.092387" lon="5.582973"><ele>1068.8</ele></rtept><rtept lat="45.092367" lon="5.58298"><ele>1069.0</ele></rtept><rtept lat="45.092348" lon="5.582993"><ele>1069.2</ele></rtept><rtept lat="45.092328" lon="5.583008"><ele>1069.2</ele></rtept><rtept lat="45.09231" lon="5.583017"><ele>1069.6</ele></rtept><rtept lat="45.092287" lon="5.583023"><ele>1069.8</ele></rtept><rtept lat="45.092265" lon="5.583035"><ele>1070.0</ele></rtept><rtept lat="45.092245" lon="5.583042"><ele>1070.2</ele></rtept><rtept lat="45.092227" lon="5.583055"><ele>1070.4</ele></rtept><rtept lat="45.092203" lon="5.583068"><ele>1070.8</ele></rtept><rtept lat="45.092185" lon="5.583072"><ele>1071.0</ele></rtept><rtept lat="45.092165" lon="5.583085"><ele>1071.2</ele></rtept><rtept lat="45.09214" lon="5.583095"><ele>1071.2</ele></rtept><rtept lat="45.092118" lon="5.583105"><ele>1072.0</ele></rtept><rtept lat="45.092095" lon="5.583115"><ele>1072.0</ele></rtept><rtept lat="45.09207" lon="5.583115"><ele>1072.0</ele></rtept><rtept lat="45.092043" lon="5.583128"><ele>1072.8</ele></rtept><rtept lat="45.092028" lon="5.583142"><ele>1073.0</ele></rtept><rtept lat="45.092" lon="5.583142"><ele>1073.6</ele></rtept><rtept lat="45.091967" lon="5.583135"><ele>1073.6</ele></rtept><rtept lat="45.091942" lon="5.583138"><ele>1073.6</ele></rtept><rtept lat="45.091913" lon="5.58315"><ele>1074.0</ele></rtept><rtept lat="45.091887" lon="5.583165"><ele>1074.2</ele></rtept><rtept lat="45.091868" lon="5.583175"><ele>1074.4</ele></rtept><rtept lat="45.091842" lon="5.583175"><ele>1074.4</ele></rtept><rtept lat="45.091813" lon="5.583182"><ele>1074.6</ele></rtept><rtept lat="45.091785" lon="5.583187"><ele>1075.0</ele></rtept><rtept lat="45.091765" lon="5.583197"><ele>1075.4</ele></rtept><rtept lat="45.09173" lon="5.583205"><ele>1075.8</ele></rtept><rtept lat="45.091712" lon="5.583207"><ele>1075.8</ele></rtept><rtept lat="45.091688" lon="5.583207"><ele>1075.8</ele></rtept><rtept lat="45.091667" lon="5.58322"><ele>1075.6</ele></rtept><rtept lat="45.091635" lon="5.583232"><ele>1075.8</ele></rtept><rtept lat="45.091608" lon="5.58324"><ele>1076.2</ele></rtept><rtept lat="45.091583" lon="5.583247"><ele>1076.6</ele></rtept><rtept lat="45.091552" lon="5.58327"><ele>1076.8</ele></rtept><rtept lat="45.091528" lon="5.583277"><ele>1076.8</ele></rtept><rtept lat="45.091503" lon="5.58329"><ele>1077.2</ele></rtept><rtept lat="45.091475" lon="5.583303"><ele>1077.4</ele></rtept><rtept lat="45.091455" lon="5.583313"><ele>1077.8</ele></rtept><rtept lat="45.09143" lon="5.583318"><ele>1077.8</ele></rtept><rtept lat="45.091407" lon="5.583318"><ele>1078.6</ele></rtept><rtept lat="45.091385" lon="5.583313"><ele>1078.8</ele></rtept><rtept lat="45.091362" lon="5.583308"><ele>1079.0</ele></rtept><rtept lat="45.091337" lon="5.583303"><ele>1079.2</ele></rtept><rtept lat="45.091315" lon="5.583293"><ele>1079.4</ele></rtept><rtept lat="45.091292" lon="5.583293"><ele>1079.6</ele></rtept><rtept lat="45.091263" lon="5.583287"><ele>1080.0</ele></rtept><rtept lat="45.091243" lon="5.583273"><ele>1080.4</ele></rtept><rtept lat="45.091228" lon="5.583262"><ele>1080.4</ele></rtept><rtept lat="45.091202" lon="5.58324"><ele>1080.4</ele></rtept><rtept lat="45.091193" lon="5.583217"><ele>1080.8</ele></rtept><rtept lat="45.091173" lon="5.58321"><ele>1081.4</ele></rtept><rtept lat="45.091155" lon="5.583198"><ele>1081.6</ele></rtept><rtept lat="45.091135" lon="5.583182"><ele>1081.6</ele></rtept><rtept lat="45.091117" lon="5.583165"><ele>1081.8</ele></rtept><rtept lat="45.091093" lon="5.583152"><ele>1082.0</ele></rtept><rtept lat="45.091072" lon="5.583135"><ele>1082.4</ele></rtept><rtept lat="45.091045" lon="5.58312"><ele>1082.6</ele></rtept><rtept lat="45.091013" lon="5.583105"><ele>1083.2</ele></rtept><rtept lat="45.090998" lon="5.583092"><ele>1083.4</ele></rtept><rtept lat="45.090975" lon="5.58308"><ele>1083.8</ele></rtept><rtept lat="45.090953" lon="5.58307"><ele>1084.0</ele></rtept><rtept lat="45.090933" lon="5.583062"><ele>1084.2</ele></rtept><rtept lat="45.090915" lon="5.583055"><ele>1084.2</ele></rtept><rtept lat="45.090892" lon="5.583047"><ele>1084.6</ele></rtept><rtept lat="45.09087" lon="5.583045"><ele>1084.8</ele></rtept><rtept lat="45.09085" lon="5.583048"><ele>1085.0</ele></rtept><rtept lat="45.090825" lon="5.583055"><ele>1085.2</ele></rtept><rtept lat="45.0908" lon="5.583055"><ele>1085.4</ele></rtept><rtept lat="45.090777" lon="5.583055"><ele>1085.8</ele></rtept><rtept lat="45.090752" lon="5.58306"><ele>1086.0</ele></rtept><rtept lat="45.090728" lon="5.58306"><ele>1086.4</ele></rtept><rtept lat="45.09071" lon="5.583065"><ele>1086.6</ele></rtept><rtept lat="45.09069" lon="5.583075"><ele>1086.8</ele></rtept><rtept lat="45.090672" lon="5.58308"><ele>1086.8</ele></rtept><rtept lat="45.090652" lon="5.583095"><ele>1087.0</ele></rtept><rtept lat="45.09063" lon="5.583102"><ele>1087.4</ele></rtept><rtept lat="45.090607" lon="5.583108"><ele>1087.4</ele></rtept><rtept lat="45.090588" lon="5.58312"><ele>1088.0</ele></rtept><rtept lat="45.090568" lon="5.583135"><ele>1088.2</ele></rtept><rtept lat="45.090547" lon="5.58315"><ele>1088.4</ele></rtept><rtept lat="45.090527" lon="5.583168"><ele>1088.4</ele></rtept><rtept lat="45.090515" lon="5.583187"><ele>1088.8</ele></rtept><rtept lat="45.090498" lon="5.583205"><ele>1089.0</ele></rtept><rtept lat="45.09048" lon="5.583218"><ele>1089.2</ele></rtept><rtept lat="45.09046" lon="5.583237"><ele>1089.6</ele></rtept><rtept lat="45.09044" lon="5.58325"><ele>1089.6</ele></rtept><rtept lat="45.090418" lon="5.583273"><ele>1090.0</ele></rtept><rtept lat="45.090402" lon="5.583293"><ele>1090.0</ele></rtept><rtept lat="45.09039" lon="5.583317"><ele>1090.4</ele></rtept><rtept lat="45.090373" lon="5.583338"><ele>1090.4</ele></rtept><rtept lat="45.09036" lon="5.58336"><ele>1091.0</ele></rtept><rtept lat="45.090352" lon="5.583383"><ele>1091.0</ele></rtept><rtept lat="45.090348" lon="5.583415"><ele>1091.2</ele></rtept><rtept lat="45.090342" lon="5.58345"><ele>1091.4</ele></rtept><rtept lat="45.090355" lon="5.583475"><ele>1091.8</ele></rtept><rtept lat="45.09036" lon="5.583502"><ele>1092.0</ele></rtept><rtept lat="45.090373" lon="5.583522"><ele>1092.4</ele></rtept><rtept lat="45.090393" lon="5.583542"><ele>1092.6</ele></rtept><rtept lat="45.090408" lon="5.58356"><ele>1093.0</ele></rtept><rtept lat="45.090432" lon="5.583577"><ele>1093.0</ele></rtept><rtept lat="45.09045" lon="5.583593"><ele>1093.0</ele></rtept><rtept lat="45.090477" lon="5.583607"><ele>1093.4</ele></rtept><rtept lat="45.090498" lon="5.58362"><ele>1093.6</ele></rtept><rtept lat="45.090515" lon="5.58363"><ele>1094.0</ele></rtept><rtept lat="45.090537" lon="5.583647"><ele>1093.8</ele></rtept><rtept lat="45.090557" lon="5.583667"><ele>1094.2</ele></rtept><rtept lat="45.090572" lon="5.58369"><ele>1094.4</ele></rtept><rtept lat="45.090578" lon="5.583728"><ele>1094.4</ele></rtept><rtept lat="45.090582" lon="5.58376"><ele>1094.4</ele></rtept><rtept lat="45.090582" lon="5.583795"><ele>1094.8</ele></rtept><rtept lat="45.090578" lon="5.58383"><ele>1095.0</ele></rtept><rtept lat="45.090568" lon="5.583865"><ele>1095.6</ele></rtept><rtept lat="45.090547" lon="5.583892"><ele>1095.8</ele></rtept><rtept lat="45.09052" lon="5.583907"><ele>1096.4</ele></rtept><rtept lat="45.090498" lon="5.583912"><ele>1096.4</ele></rtept><rtept lat="45.09047" lon="5.583917"><ele>1096.4</ele></rtept><rtept lat="45.09045" lon="5.583913"><ele>1096.6</ele></rtept><rtept lat="45.090422" lon="5.583912"><ele>1096.8</ele></rtept><rtept lat="45.090402" lon="5.583907"><ele>1097.4</ele></rtept><rtept lat="45.09038" lon="5.5839"><ele>1097.4</ele></rtept><rtept lat="45.090355" lon="5.583898"><ele>1097.6</ele></rtept><rtept lat="45.090328" lon="5.583892"><ele>1097.6</ele></rtept><rtept lat="45.0903" lon="5.583887"><ele>1098.0</ele></rtept><rtept lat="45.090275" lon="5.583878"><ele>1097.8</ele></rtept><rtept lat="45.090242" lon="5.583877"><ele>1098.2</ele></rtept><rtept lat="45.090223" lon="5.583885"><ele>1098.2</ele></rtept><rtept lat="45.09021" lon="5.583912"><ele>1098.4</ele></rtept><rtept lat="45.090198" lon="5.583947"><ele>1098.8</ele></rtept><rtept lat="45.090195" lon="5.583977"><ele>1098.8</ele></rtept><rtept lat="45.090195" lon="5.584008"><ele>1099.2</ele></rtept><rtept lat="45.090185" lon="5.584037"><ele>1099.4</ele></rtept><rtept lat="45.090182" lon="5.58407"><ele>1099.6</ele></rtept><rtept lat="45.090175" lon="5.584112"><ele>1099.6</ele></rtept><rtept lat="45.090162" lon="5.58414"><ele>1100.2</ele></rtept><rtept lat="45.090143" lon="5.58416"><ele>1100.2</ele></rtept><rtept lat="45.090123" lon="5.58418"><ele>1100.4</ele></rtept><rtept lat="45.090112" lon="5.584205"><ele>1100.6</ele></rtept><rtept lat="45.090102" lon="5.58423"><ele>1101.0</ele></rtept><rtept lat="45.090112" lon="5.584262"><ele>1101.8</ele></rtept><rtept lat="45.090123" lon="5.584287"><ele>1102.2</ele></rtept><rtept lat="45.090143" lon="5.584292"><ele>1102.8</ele></rtept><rtept lat="45.090178" lon="5.58431"><ele>1103.4</ele></rtept><rtept lat="45.090195" lon="5.584327"><ele>1103.8</ele></rtept><rtept lat="45.09021" lon="5.584347"><ele>1104.0</ele></rtept><rtept lat="45.09023" lon="5.584367"><ele>1104.2</ele></rtept><rtept lat="45.090242" lon="5.58439"><ele>1104.8</ele></rtept><rtept lat="45.090255" lon="5.584413"><ele>1105.0</ele></rtept><rtept lat="45.090258" lon="5.584453"><ele>1105.4</ele></rtept><rtept lat="45.090262" lon="5.584485"><ele>1105.8</ele></rtept><rtept lat="45.090262" lon="5.58451"><ele>1106.0</ele></rtept><rtept lat="45.090255" lon="5.58454"><ele>1106.2</ele></rtept><rtept lat="45.090242" lon="5.584565"><ele>1106.6</ele></rtept><rtept lat="45.090237" lon="5.584607"><ele>1107.4</ele></rtept><rtept lat="45.090223" lon="5.58465"><ele>1107.4</ele></rtept><rtept lat="45.090213" lon="5.584687"><ele>1107.6</ele></rtept><rtept lat="45.0902" lon="5.58471"><ele>1108.2</ele></rtept><rtept lat="45.090195" lon="5.58474"><ele>1108.6</ele></rtept><rtept lat="45.090185" lon="5.584778"><ele>1109.0</ele></rtept><rtept lat="45.090172" lon="5.58481"><ele>1109.2</ele></rtept><rtept lat="45.090165" lon="5.584845"><ele>1109.4</ele></rtept><rtept lat="45.090178" lon="5.584875"><ele>1109.6</ele></rtept><rtept lat="45.090192" lon="5.584905"><ele>1110.0</ele></rtept><rtept lat="45.0902" lon="5.584928"><ele>1110.0</ele></rtept><rtept lat="45.09022" lon="5.584948"><ele>1110.2</ele></rtept><rtept lat="45.090237" lon="5.58497"><ele>1110.2</ele></rtept><rtept lat="45.090258" lon="5.584992"><ele>1110.4</ele></rtept><rtept lat="45.090272" lon="5.585017"><ele>1110.2</ele></rtept><rtept lat="45.09029" lon="5.58503"><ele>1110.4</ele></rtept><rtept lat="45.09031" lon="5.585043"><ele>1110.4</ele></rtept><rtept lat="45.090332" lon="5.58507"><ele>1110.4</ele></rtept><rtept lat="45.090348" lon="5.585087"><ele>1110.4</ele></rtept><rtept lat="45.09037" lon="5.58511"><ele>1110.6</ele></rtept><rtept lat="45.090397" lon="5.585133"><ele>1110.8</ele></rtept><rtept lat="45.090412" lon="5.585155"><ele>1110.8</ele></rtept><rtept lat="45.090432" lon="5.585185"><ele>1111.0</ele></rtept><rtept lat="45.090435" lon="5.58521"><ele>1111.2</ele></rtept><rtept lat="45.09045" lon="5.58523"><ele>1111.8</ele></rtept><rtept lat="45.090463" lon="5.585265"><ele>1112.2</ele></rtept><rtept lat="45.090473" lon="5.585288"><ele>1112.2</ele></rtept><rtept lat="45.090482" lon="5.585312"><ele>1112.6</ele></rtept><rtept lat="45.090498" lon="5.58534"><ele>1112.8</ele></rtept><rtept lat="45.090508" lon="5.585367"><ele>1113.2</ele></rtept><rtept lat="45.09052" lon="5.585397"><ele>1113.4</ele></rtept><rtept lat="45.090537" lon="5.585417"><ele>1113.8</ele></rtept><rtept lat="45.09056" lon="5.585428"><ele>1114.0</ele></rtept><rtept lat="45.090575" lon="5.585443"><ele>1114.2</ele></rtept><rtept lat="45.090588" lon="5.585473"><ele>1114.4</ele></rtept><rtept lat="45.0906" lon="5.585493"><ele>1114.6</ele></rtept><rtept lat="45.090613" lon="5.585522"><ele>1115.0</ele></rtept><rtept lat="45.09062" lon="5.585548"><ele>1115.4</ele></rtept><rtept lat="45.09062" lon="5.58558"><ele>1115.4</ele></rtept><rtept lat="45.090627" lon="5.58561"><ele>1115.8</ele></rtept><rtept lat="45.09063" lon="5.585637"><ele>1115.8</ele></rtept><rtept lat="45.09064" lon="5.585677"><ele>1116.6</ele></rtept><rtept lat="45.090658" lon="5.585702"><ele>1116.6</ele></rtept><rtept lat="45.090658" lon="5.58573"><ele>1117.2</ele></rtept><rtept lat="45.090662" lon="5.58576"><ele>1118.0</ele></rtept><rtept lat="45.090662" lon="5.58579"><ele>1118.4</ele></rtept><rtept lat="45.090658" lon="5.585817"><ele>1119.0</ele></rtept><rtept lat="45.090662" lon="5.585842"><ele>1119.6</ele></rtept><rtept lat="45.090655" lon="5.585875"><ele>1120.4</ele></rtept><rtept lat="45.090655" lon="5.585908"><ele>1120.8</ele></rtept><rtept lat="45.090662" lon="5.58595"><ele>1121.4</ele></rtept><rtept lat="45.090655" lon="5.585975"><ele>1121.8</ele></rtept><rtept lat="45.090668" lon="5.586002"><ele>1122.4</ele></rtept><rtept lat="45.090668" lon="5.586032"><ele>1122.6</ele></rtept><rtept lat="45.090662" lon="5.586067"><ele>1123.4</ele></rtept><rtept lat="45.090668" lon="5.58609"><ele>1123.8</ele></rtept><rtept lat="45.090662" lon="5.58612"><ele>1124.4</ele></rtept><rtept lat="45.090655" lon="5.586168"><ele>1124.8</ele></rtept><rtept lat="45.090658" lon="5.586198"><ele>1125.2</ele></rtept><rtept lat="45.090662" lon="5.586225"><ele>1126.0</ele></rtept><rtept lat="45.090672" lon="5.586258"><ele>1126.4</ele></rtept><rtept lat="45.090675" lon="5.586285"><ele>1127.0</ele></rtept><rtept lat="45.090675" lon="5.586312"><ele>1127.2</ele></rtept><rtept lat="45.090672" lon="5.586345"><ele>1128.0</ele></rtept><rtept lat="45.090672" lon="5.586382"><ele>1128.4</ele></rtept><rtept lat="45.090675" lon="5.58641"><ele>1129.0</ele></rtept><rtept lat="45.090687" lon="5.586433"><ele>1129.4</ele></rtept><rtept lat="45.090693" lon="5.586463"><ele>1130.0</ele></rtept><rtept lat="45.090707" lon="5.586497"><ele>1130.8</ele></rtept><rtept lat="45.090707" lon="5.58653"><ele>1131.4</ele></rtept><rtept lat="45.090713" lon="5.586568"><ele>1131.6</ele></rtept><rtept lat="45.090717" lon="5.5866"><ele>1132.6</ele></rtept><rtept lat="45.090728" lon="5.58663"><ele>1133.0</ele></rtept><rtept lat="45.090735" lon="5.586665"><ele>1133.8</ele></rtept><rtept lat="45.090728" lon="5.58669"><ele>1134.0</ele></rtept><rtept lat="45.090748" lon="5.586705"><ele>1134.6</ele></rtept><rtept lat="45.090738" lon="5.586727"><ele>1134.8</ele></rtept><rtept lat="45.090752" lon="5.586747"><ele>1135.8</ele></rtept><rtept lat="45.090755" lon="5.586773"><ele>1136.4</ele></rtept><rtept lat="45.090752" lon="5.5868"><ele>1137.0</ele></rtept><rtept lat="45.090752" lon="5.586827"><ele>1137.8</ele></rtept><rtept lat="45.09076" lon="5.58685"><ele>1138.2</ele></rtept><rtept lat="45.09076" lon="5.586878"><ele>1138.8</ele></rtept><rtept lat="45.090758" lon="5.586908"><ele>1139.0</ele></rtept><rtept lat="45.090752" lon="5.586935"><ele>1139.6</ele></rtept><rtept lat="45.090748" lon="5.58696"><ele>1140.4</ele></rtept><rtept lat="45.090745" lon="5.586988"><ele>1141.0</ele></rtept><rtept lat="45.090745" lon="5.587015"><ele>1141.4</ele></rtept><rtept lat="45.090732" lon="5.587038"><ele>1142.0</ele></rtept><rtept lat="45.090735" lon="5.587072"><ele>1142.8</ele></rtept><rtept lat="45.090738" lon="5.5871"><ele>1143.6</ele></rtept><rtept lat="45.090752" lon="5.587123"><ele>1143.8</ele></rtept><rtept lat="45.090752" lon="5.58715"><ele>1145.0</ele></rtept><rtept lat="45.090735" lon="5.58717"><ele>1145.2</ele></rtept><rtept lat="45.090745" lon="5.587197"><ele>1145.6</ele></rtept><rtept lat="45.090738" lon="5.587223"><ele>1146.0</ele></rtept><rtept lat="45.090725" lon="5.587242"><ele>1147.0</ele></rtept><rtept lat="45.090732" lon="5.587275"><ele>1147.6</ele></rtept><rtept lat="45.090738" lon="5.58731"><ele>1148.0</ele></rtept><rtept lat="45.090738" lon="5.587345"><ele>1149.2</ele></rtept><rtept lat="45.090725" lon="5.587385"><ele>1149.4</ele></rtept><rtept lat="45.0907" lon="5.587398"><ele>1149.8</ele></rtept><rtept lat="45.090675" lon="5.587422"><ele>1150.2</ele></rtept><rtept lat="45.090655" lon="5.587442"><ele>1150.4</ele></rtept><rtept lat="45.090637" lon="5.587457"><ele>1150.2</ele></rtept><rtept lat="45.09062" lon="5.587477"><ele>1150.6</ele></rtept><rtept lat="45.090627" lon="5.587507"><ele>1151.4</ele></rtept><rtept lat="45.09063" lon="5.58754"><ele>1152.2</ele></rtept><rtept lat="45.09062" lon="5.587563"><ele>1152.2</ele></rtept><rtept lat="45.090617" lon="5.58759"><ele>1152.8</ele></rtept><rtept lat="45.090607" lon="5.587618"><ele>1154.0</ele></rtept><rtept lat="45.090588" lon="5.587642"><ele>1154.6</ele></rtept><rtept lat="45.090592" lon="5.587675"><ele>1155.4</ele></rtept><rtept lat="45.090582" lon="5.5877"><ele>1156.2</ele></rtept><rtept lat="45.090562" lon="5.58772"><ele>1157.0</ele></rtept><rtept lat="45.090547" lon="5.587732"><ele>1157.4</ele></rtept><rtept lat="45.090537" lon="5.587755"><ele>1158.8</ele></rtept><rtept lat="45.090527" lon="5.587777"><ele>1160.0</ele></rtept><rtept lat="45.090515" lon="5.587797"><ele>1160.6</ele></rtept><rtept lat="45.090498" lon="5.58782"><ele>1161.4</ele></rtept><rtept lat="45.090482" lon="5.58784"><ele>1161.6</ele></rtept><rtept lat="45.09046" lon="5.587873"><ele>1162.0</ele></rtept><rtept lat="45.090447" lon="5.587903"><ele>1162.4</ele></rtept><rtept lat="45.090438" lon="5.587927"><ele>1163.0</ele></rtept><rtept lat="45.090418" lon="5.587943"><ele>1163.6</ele></rtept><rtept lat="45.090408" lon="5.587978"><ele>1164.0</ele></rtept><rtept lat="45.090408" lon="5.588012"><ele>1164.8</ele></rtept><rtept lat="45.090377" lon="5.58802"><ele>1165.0</ele></rtept><rtept lat="45.090363" lon="5.588045"><ele>1166.4</ele></rtept><rtept lat="45.090363" lon="5.588085"><ele>1167.4</ele></rtept><rtept lat="45.090348" lon="5.588107"><ele>1168.0</ele></rtept><rtept lat="45.090332" lon="5.588118"><ele>1168.4</ele></rtept><rtept lat="45.090317" lon="5.588142"><ele>1168.8</ele></rtept><rtept lat="45.0903" lon="5.58816"><ele>1169.6</ele></rtept><rtept lat="45.09028" lon="5.58817"><ele>1170.2</ele></rtept><rtept lat="45.090262" lon="5.58818"><ele>1170.8</ele></rtept><rtept lat="45.09024" lon="5.588203"><ele>1172.2</ele></rtept><rtept lat="45.09022" lon="5.58822"><ele>1172.8</ele></rtept><rtept lat="45.09021" lon="5.588243"><ele>1173.4</ele></rtept><rtept lat="45.090195" lon="5.588263"><ele>1174.0</ele></rtept><rtept lat="45.090182" lon="5.58828"><ele>1175.2</ele></rtept><rtept lat="45.090165" lon="5.588293"><ele>1175.6</ele></rtept><rtept lat="45.090143" lon="5.588312"><ele>1176.4</ele></rtept><rtept lat="45.090123" lon="5.588328"><ele>1177.2</ele></rtept><rtept lat="45.090112" lon="5.588345"><ele>1178.2</ele></rtept><rtept lat="45.090102" lon="5.588368"><ele>1178.4</ele></rtept><rtept lat="45.090085" lon="5.588398"><ele>1179.8</ele></rtept><rtept lat="45.090082" lon="5.58843"><ele>1180.4</ele></rtept><rtept lat="45.090077" lon="5.58846"><ele>1181.2</ele></rtept><rtept lat="45.090063" lon="5.58848"><ele>1182.0</ele></rtept><rtept lat="45.09008" lon="5.588507"><ele>1182.4</ele></rtept><rtept lat="45.09008" lon="5.588537"><ele>1183.2</ele></rtept><rtept lat="45.09007" lon="5.58856"><ele>1184.2</ele></rtept><rtept lat="45.09007" lon="5.588597"><ele>1187.2</ele></rtept><rtept lat="45.090053" lon="5.588627"><ele>1187.6</ele></rtept><rtept lat="45.09005" lon="5.588653"><ele>1188.0</ele></rtept><rtept lat="45.09004" lon="5.588685"><ele>1188.6</ele></rtept><rtept lat="45.090032" lon="5.58871"><ele>1188.8</ele></rtept><rtept lat="45.090012" lon="5.588732"><ele>1189.8</ele></rtept><rtept lat="45.090015" lon="5.588765"><ele>1190.6</ele></rtept><rtept lat="45.09" lon="5.588785"><ele>1191.2</ele></rtept><rtept lat="45.089993" lon="5.588813"><ele>1192.2</ele></rtept><rtept lat="45.089997" lon="5.588845"><ele>1192.8</ele></rtept><rtept lat="45.089983" lon="5.588863"><ele>1193.4</ele></rtept><rtept lat="45.089973" lon="5.588887"><ele>1194.2</ele></rtept><rtept lat="45.089958" lon="5.58891"><ele>1195.2</ele></rtept><rtept lat="45.089938" lon="5.588937"><ele>1196.0</ele></rtept><rtept lat="45.089925" lon="5.58896"><ele>1196.8</ele></rtept><rtept lat="45.08992" lon="5.588988"><ele>1197.2</ele></rtept><rtept lat="45.089897" lon="5.589015"><ele>1198.4</ele></rtept><rtept lat="45.089883" lon="5.589042"><ele>1198.4</ele></rtept><rtept lat="45.089872" lon="5.589065"><ele>1198.8</ele></rtept><rtept lat="45.089855" lon="5.58909"><ele>1199.4</ele></rtept><rtept lat="45.089842" lon="5.589112"><ele>1200.2</ele></rtept><rtept lat="45.089823" lon="5.58913"><ele>1200.4</ele></rtept><rtept lat="45.089827" lon="5.589158"><ele>1201.4</ele></rtept><rtept lat="45.08982" lon="5.589182"><ele>1202.4</ele></rtept><rtept lat="45.0898" lon="5.58921"><ele>1203.2</ele></rtept><rtept lat="45.089782" lon="5.589217"><ele>1203.6</ele></rtept><rtept lat="45.089772" lon="5.589243"><ele>1204.2</ele></rtept><rtept lat="45.089757" lon="5.58926"><ele>1205.2</ele></rtept><rtept lat="45.089747" lon="5.589297"><ele>1205.6</ele></rtept><rtept lat="45.089737" lon="5.58932"><ele>1206.6</ele></rtept><rtept lat="45.089723" lon="5.589342"><ele>1208.0</ele></rtept><rtept lat="45.089715" lon="5.589375"><ele>1208.4</ele></rtept><rtept lat="45.089688" lon="5.5894"><ele>1209.0</ele></rtept><rtept lat="45.089667" lon="5.589415"><ele>1209.8</ele></rtept><rtept lat="45.089647" lon="5.589418"><ele>1210.0</ele></rtept><rtept lat="45.089628" lon="5.589435"><ele>1210.6</ele></rtept><rtept lat="45.089615" lon="5.589465"><ele>1210.8</ele></rtept><rtept lat="45.089597" lon="5.589492"><ele>1211.6</ele></rtept><rtept lat="45.08958" lon="5.589508"><ele>1213.0</ele></rtept><rtept lat="45.08956" lon="5.589512"><ele>1213.2</ele></rtept><rtept lat="45.089542" lon="5.58953"><ele>1213.8</ele></rtept><rtept lat="45.089525" lon="5.589558"><ele>1214.2</ele></rtept><rtept lat="45.089507" lon="5.589593"><ele>1214.6</ele></rtept><rtept lat="45.08949" lon="5.589607"><ele>1215.2</ele></rtept><rtept lat="45.089462" lon="5.589627"><ele>1216.8</ele></rtept><rtept lat="45.089442" lon="5.589643"><ele>1217.2</ele></rtept><rtept lat="45.08942" lon="5.589668"><ele>1217.6</ele></rtept><rtept lat="45.089403" lon="5.58968"><ele>1218.0</ele></rtept><rtept lat="45.089385" lon="5.58969"><ele>1218.6</ele></rtept><rtept lat="45.089368" lon="5.589705"><ele>1220.0</ele></rtept><rtept lat="45.08936" lon="5.589728"><ele>1220.2</ele></rtept><rtept lat="45.089343" lon="5.58975"><ele>1220.6</ele></rtept><rtept lat="45.089323" lon="5.589765"><ele>1221.8</ele></rtept><rtept lat="45.089308" lon="5.589782"><ele>1222.6</ele></rtept><rtept lat="45.089288" lon="5.58981"><ele>1223.4</ele></rtept><rtept lat="45.08927" lon="5.589832"><ele>1224.2</ele></rtept><rtept lat="45.08924" lon="5.58984"><ele>1225.6</ele></rtept><rtept lat="45.089228" lon="5.589858"><ele>1226.6</ele></rtept><rtept lat="45.089202" lon="5.58987"><ele>1228.0</ele></rtept><rtept lat="45.089187" lon="5.589888"><ele>1228.8</ele></rtept><rtept lat="45.089158" lon="5.589927"><ele>1229.8</ele></rtept><rtept lat="45.089132" lon="5.589933"><ele>1230.0</ele></rtept><rtept lat="45.089113" lon="5.58993"><ele>1230.6</ele></rtept><rtept lat="45.08909" lon="5.589947"><ele>1231.0</ele></rtept><rtept lat="45.089072" lon="5.589953"><ele>1231.0</ele></rtept><rtept lat="45.089052" lon="5.58996"><ele>1231.0</ele></rtept><rtept lat="45.089027" lon="5.589978"><ele>1231.6</ele></rtept><rtept lat="45.089007" lon="5.589993"><ele>1231.6</ele></rtept><rtept lat="45.088988" lon="5.589998"><ele>1232.6</ele></rtept><rtept lat="45.088968" lon="5.590017"><ele>1233.0</ele></rtept><rtept lat="45.08894" lon="5.590027"><ele>1233.4</ele></rtept><rtept lat="45.088908" lon="5.59004"><ele>1234.2</ele></rtept><rtept lat="45.08888" lon="5.590053"><ele>1234.8</ele></rtept><rtept lat="45.08886" lon="5.59007"><ele>1235.0</ele></rtept><rtept lat="45.088832" lon="5.590088"><ele>1235.6</ele></rtept><rtept lat="45.088812" lon="5.590095"><ele>1236.2</ele></rtept><rtept lat="45.0888" lon="5.590135"><ele>1237.6</ele></rtept><rtept lat="45.08878" lon="5.590125"><ele>1238.6</ele></rtept><rtept lat="45.08876" lon="5.590125"><ele>1239.2</ele></rtept><rtept lat="45.088735" lon="5.590118"><ele>1241.2</ele></rtept><rtept lat="45.088713" lon="5.590118"><ele>1242.0</ele></rtept><rtept lat="45.088693" lon="5.590125"><ele>1243.0</ele></rtept><rtept lat="45.088672" lon="5.590132"><ele>1247.8</ele></rtept><rtept lat="45.088645" lon="5.590152"><ele>1248.4</ele></rtept><rtept lat="45.08861" lon="5.590165"><ele>1248.6</ele></rtept><rtept lat="45.088575" lon="5.590165"><ele>1248.6</ele></rtept><rtept lat="45.088557" lon="5.590168"><ele>1249.0</ele></rtept><rtept lat="45.088537" lon="5.590168"><ele>1249.4</ele></rtept><rtept lat="45.088515" lon="5.59017"><ele>1249.8</ele></rtept><rtept lat="45.088492" lon="5.590175"><ele>1250.4</ele></rtept><rtept lat="45.08847" lon="5.59018"><ele>1250.6</ele></rtept><rtept lat="45.088447" lon="5.59019"><ele>1251.0</ele></rtept><rtept lat="45.088435" lon="5.590212"><ele>1252.2</ele></rtept><rtept lat="45.088412" lon="5.59022"><ele>1253.2</ele></rtept><rtept lat="45.088402" lon="5.590247"><ele>1254.4</ele></rtept><rtept lat="45.088387" lon="5.590262"><ele>1255.8</ele></rtept><rtept lat="45.088367" lon="5.590277"><ele>1257.4</ele></rtept><rtept lat="45.088348" lon="5.59029"><ele>1259.0</ele></rtept><rtept lat="45.088332" lon="5.590303"><ele>1259.4</ele></rtept><rtept lat="45.088313" lon="5.590313"><ele>1259.6</ele></rtept><rtept lat="45.088303" lon="5.590337"><ele>1260.4</ele></rtept><rtept lat="45.088283" lon="5.590353"><ele>1260.6</ele></rtept><rtept lat="45.088258" lon="5.590373"><ele>1261.0</ele></rtept><rtept lat="45.088245" lon="5.590392"><ele>1261.6</ele></rtept><rtept lat="45.088227" lon="5.59041"><ele>1261.6</ele></rtept><rtept lat="45.088203" lon="5.590398"><ele>1263.0</ele></rtept><rtept lat="45.088185" lon="5.590398"><ele>1263.8</ele></rtept><rtept lat="45.088165" lon="5.590403"><ele>1264.2</ele></rtept><rtept lat="45.088133" lon="5.590392"><ele>1264.4</ele></rtept><rtept lat="45.088115" lon="5.590403"><ele>1265.2</ele></rtept><rtept lat="45.088098" lon="5.590417"><ele>1266.2</ele></rtept><rtept lat="45.08807" lon="5.590435"><ele>1266.8</ele></rtept><rtept lat="45.088053" lon="5.59045"><ele>1267.8</ele></rtept><rtept lat="45.088032" lon="5.590465"><ele>1268.4</ele></rtept><rtept lat="45.088012" lon="5.59048"><ele>1268.8</ele></rtept><rtept lat="45.087993" lon="5.590485"><ele>1268.8</ele></rtept><rtept lat="45.087973" lon="5.590488"><ele>1269.6</ele></rtept><rtept lat="45.087958" lon="5.590505"><ele>1270.2</ele></rtept><rtept lat="45.087938" lon="5.590515"><ele>1271.2</ele></rtept><rtept lat="45.087925" lon="5.590542"><ele>1271.6</ele></rtept><rtept lat="45.087913" lon="5.590562"><ele>1272.2</ele></rtept><rtept lat="45.08789" lon="5.59057"><ele>1272.6</ele></rtept><rtept lat="45.087868" lon="5.590575"><ele>1273.2</ele></rtept><rtept lat="45.087845" lon="5.590582"><ele>1273.4</ele></rtept><rtept lat="45.087827" lon="5.590583"><ele>1275.0</ele></rtept><rtept lat="45.087807" lon="5.590592"><ele>1275.2</ele></rtept><rtept lat="45.087788" lon="5.5906"><ele>1275.4</ele></rtept><rtept lat="45.087768" lon="5.590597"><ele>1276.0</ele></rtept><rtept lat="45.08774" lon="5.590608"><ele>1277.4</ele></rtept><rtept lat="45.08772" lon="5.59063"><ele>1278.0</ele></rtept><rtept lat="45.087718" lon="5.590657"><ele>1278.6</ele></rtept><rtept lat="45.08772" lon="5.590683"><ele>1279.8</ele></rtept><rtept lat="45.087712" lon="5.590707"><ele>1280.4</ele></rtept><rtept lat="45.087702" lon="5.590733"><ele>1281.2</ele></rtept><rtept lat="45.087688" lon="5.590767"><ele>1282.0</ele></rtept><rtept lat="45.087673" lon="5.59078"><ele>1282.6</ele></rtept><rtept lat="45.087653" lon="5.590798"><ele>1283.2</ele></rtept><rtept lat="45.08764" lon="5.590815"><ele>1283.8</ele></rtept><rtept lat="45.087622" lon="5.59083"><ele>1284.8</ele></rtept><rtept lat="45.087608" lon="5.590848"><ele>1285.2</ele></rtept><rtept lat="45.087593" lon="5.590865"><ele>1286.6</ele></rtept><rtept lat="45.087577" lon="5.590882"><ele>1286.6</ele></rtept><rtept lat="45.08756" lon="5.5909"><ele>1287.4</ele></rtept><rtept lat="45.087548" lon="5.590925"><ele>1288.2</ele></rtept><rtept lat="45.087535" lon="5.590947"><ele>1289.0</ele></rtept><rtept lat="45.087522" lon="5.59098"><ele>1290.0</ele></rtept><rtept lat="45.08751" lon="5.590997"><ele>1290.4</ele></rtept><rtept lat="45.087493" lon="5.591017"><ele>1291.4</ele></rtept><rtept lat="45.08748" lon="5.591037"><ele>1292.2</ele></rtept><rtept lat="45.087472" lon="5.591063"><ele>1293.0</ele></rtept><rtept lat="45.087452" lon="5.591087"><ele>1293.6</ele></rtept><rtept lat="45.08744" lon="5.591108"><ele>1294.0</ele></rtept><rtept lat="45.08743" lon="5.59114"><ele>1295.0</ele></rtept><rtept lat="45.08741" lon="5.591165"><ele>1295.6</ele></rtept><rtept lat="45.087398" lon="5.591185"><ele>1296.4</ele></rtept><rtept lat="45.0874" lon="5.591212"><ele>1297.6</ele></rtept><rtept lat="45.087423" lon="5.591225"><ele>1298.0</ele></rtept><rtept lat="45.087437" lon="5.591247"><ele>1298.6</ele></rtept><rtept lat="45.087455" lon="5.591265"><ele>1299.4</ele></rtept><rtept lat="45.087475" lon="5.591288"><ele>1300.4</ele></rtept><rtept lat="45.087493" lon="5.591312"><ele>1301.8</ele></rtept><rtept lat="45.087513" lon="5.591333"><ele>1302.8</ele></rtept><rtept lat="45.087532" lon="5.591343"><ele>1303.4</ele></rtept><rtept lat="45.087548" lon="5.591367"><ele>1305.0</ele></rtept><rtept lat="45.08757" lon="5.591378"><ele>1306.0</ele></rtept><rtept lat="45.087593" lon="5.591387"><ele>1306.4</ele></rtept><rtept lat="45.087612" lon="5.59139"><ele>1307.6</ele></rtept><rtept lat="45.087628" lon="5.591403"><ele>1308.2</ele></rtept><rtept lat="45.08765" lon="5.591417"><ele>1308.4</ele></rtept><rtept lat="45.087673" lon="5.591433"><ele>1308.8</ele></rtept><rtept lat="45.087688" lon="5.591453"><ele>1309.6</ele></rtept><rtept lat="45.087708" lon="5.591458"><ele>1310.6</ele></rtept><rtept lat="45.087727" lon="5.591468"><ele>1311.2</ele></rtept><rtept lat="45.08775" lon="5.591475"><ele>1312.0</ele></rtept><rtept lat="45.087768" lon="5.59148"><ele>1312.4</ele></rtept><rtept lat="45.087792" lon="5.591492"><ele>1313.2</ele></rtept><rtept lat="45.08781" lon="5.591502"><ele>1313.8</ele></rtept><rtept lat="45.087833" lon="5.591512"><ele>1314.4</ele></rtept><rtept lat="45.087852" lon="5.591518"><ele>1314.8</ele></rtept><rtept lat="45.087872" lon="5.59153"><ele>1315.2</ele></rtept><rtept lat="45.087878" lon="5.591558"><ele>1315.6</ele></rtept><rtept lat="45.087862" lon="5.591582"><ele>1316.2</ele></rtept><rtept lat="45.087845" lon="5.591598"><ele>1316.8</ele></rtept><rtept lat="45.08783" lon="5.591618"><ele>1317.6</ele></rtept><rtept lat="45.087807" lon="5.591632"><ele>1318.0</ele></rtept><rtept lat="45.087792" lon="5.591645"><ele>1318.8</ele></rtept><rtept lat="45.087768" lon="5.591667"><ele>1319.6</ele></rtept><rtept lat="45.087753" lon="5.591687"><ele>1320.0</ele></rtept><rtept lat="45.08774" lon="5.591717"><ele>1321.2</ele></rtept><rtept lat="45.087733" lon="5.591747"><ele>1322.2</ele></rtept><rtept lat="45.08773" lon="5.591773"><ele>1323.2</ele></rtept><rtept lat="45.087715" lon="5.591793"><ele>1324.6</ele></rtept><rtept lat="45.087715" lon="5.59182"><ele>1325.0</ele></rtept><rtept lat="45.087702" lon="5.59184"><ele>1325.6</ele></rtept><rtept lat="45.087688" lon="5.591865"><ele>1326.6</ele></rtept><rtept lat="45.087673" lon="5.59188"><ele>1327.2</ele></rtept><rtept lat="45.087653" lon="5.59189"><ele>1327.6</ele></rtept><rtept lat="45.087635" lon="5.591902"><ele>1328.0</ele></rtept><rtept lat="45.087622" lon="5.591922"><ele>1328.6</ele></rtept><rtept lat="45.087618" lon="5.591952"><ele>1329.6</ele></rtept><rtept lat="45.087635" lon="5.591972"><ele>1330.4</ele></rtept><rtept lat="45.087653" lon="5.591997"><ele>1330.6</ele></rtept><rtept lat="45.087673" lon="5.592007"><ele>1331.6</ele></rtept><rtept lat="45.087698" lon="5.592017"><ele>1332.8</ele></rtept><rtept lat="45.087715" lon="5.592037"><ele>1333.6</ele></rtept><rtept lat="45.08773" lon="5.592053"><ele>1334.6</ele></rtept><rtept lat="45.08774" lon="5.592077"><ele>1335.4</ele></rtept><rtept lat="45.087753" lon="5.592097"><ele>1336.0</ele></rtept><rtept lat="45.087768" lon="5.592113"><ele>1337.0</ele></rtept><rtept lat="45.087782" lon="5.592133"><ele>1337.6</ele></rtept><rtept lat="45.0878" lon="5.592148"><ele>1337.8</ele></rtept><rtept lat="45.08781" lon="5.592175"><ele>1339.0</ele></rtept><rtept lat="45.08783" lon="5.592187"><ele>1339.4</ele></rtept><rtept lat="45.087848" lon="5.592202"><ele>1340.0</ele></rtept><rtept lat="45.087862" lon="5.592225"><ele>1341.0</ele></rtept><rtept lat="45.08788" lon="5.592225"><ele>1342.0</ele></rtept><rtept lat="45.087897" lon="5.59225"><ele>1344.6</ele></rtept><rtept lat="45.087917" lon="5.592275"><ele>1345.0</ele></rtept><rtept lat="45.087935" lon="5.592298"><ele>1345.4</ele></rtept><rtept lat="45.087958" lon="5.592327"><ele>1345.8</ele></rtept><rtept lat="45.087977" lon="5.592347"><ele>1346.2</ele></rtept><rtept lat="45.088005" lon="5.59236"><ele>1346.8</ele></rtept><rtept lat="45.088025" lon="5.592382"><ele>1347.6</ele></rtept><rtept lat="45.088043" lon="5.5924"><ele>1348.2</ele></rtept><rtept lat="45.08807" lon="5.59242"><ele>1349.2</ele></rtept><rtept lat="45.088085" lon="5.592433"><ele>1349.6</ele></rtept><rtept lat="45.088105" lon="5.592458"><ele>1350.6</ele></rtept><rtept lat="45.088118" lon="5.592478"><ele>1351.2</ele></rtept><rtept lat="45.088133" lon="5.592498"><ele>1352.0</ele></rtept><rtept lat="45.088147" lon="5.592517"><ele>1353.0</ele></rtept><rtept lat="45.088172" lon="5.59253"><ele>1353.4</ele></rtept><rtept lat="45.088188" lon="5.592548"><ele>1354.2</ele></rtept><rtept lat="45.088203" lon="5.592568"><ele>1354.6</ele></rtept><rtept lat="45.088213" lon="5.592595"><ele>1355.4</ele></rtept><rtept lat="45.08823" lon="5.592612"><ele>1355.8</ele></rtept><rtept lat="45.088248" lon="5.592642"><ele>1357.0</ele></rtept><rtept lat="45.088272" lon="5.592652"><ele>1357.4</ele></rtept><rtept lat="45.088287" lon="5.592665"><ele>1358.2</ele></rtept><rtept lat="45.088297" lon="5.592688"><ele>1359.0</ele></rtept><rtept lat="45.088303" lon="5.592717"><ele>1359.6</ele></rtept><rtept lat="45.088307" lon="5.592742"><ele>1360.2</ele></rtept><rtept lat="45.088325" lon="5.59276"><ele>1361.2</ele></rtept><rtept lat="45.088335" lon="5.592787"><ele>1362.0</ele></rtept><rtept lat="45.088348" lon="5.592803"><ele>1362.6</ele></rtept><rtept lat="45.088358" lon="5.59283"><ele>1363.2</ele></rtept><rtept lat="45.088352" lon="5.592855"><ele>1364.4</ele></rtept><rtept lat="45.088363" lon="5.592875"><ele>1364.8</ele></rtept><rtept lat="45.088373" lon="5.592902"><ele>1365.6</ele></rtept><rtept lat="45.088383" lon="5.59293"><ele>1366.2</ele></rtept><rtept lat="45.088393" lon="5.592952"><ele>1367.0</ele></rtept><rtept lat="45.088387" lon="5.592982"><ele>1367.6</ele></rtept><rtept lat="45.08839" lon="5.593017"><ele>1368.6</ele></rtept><rtept lat="45.088383" lon="5.59304"><ele>1369.2</ele></rtept><rtept lat="45.08839" lon="5.59307"><ele>1370.6</ele></rtept><rtept lat="45.088405" lon="5.593087"><ele>1370.8</ele></rtept><rtept lat="45.088408" lon="5.593113"><ele>1371.8</ele></rtept><rtept lat="45.088422" lon="5.593138"><ele>1372.6</ele></rtept><rtept lat="45.088428" lon="5.593168"><ele>1373.6</ele></rtept><rtept lat="45.088422" lon="5.593193"><ele>1375.0</ele></rtept><rtept lat="45.088428" lon="5.59322"><ele>1375.4</ele></rtept><rtept lat="45.088432" lon="5.593248"><ele>1376.6</ele></rtept><rtept lat="45.088438" lon="5.593278"><ele>1377.6</ele></rtept><rtept lat="45.088453" lon="5.59329"><ele>1378.2</ele></rtept><rtept lat="45.088467" lon="5.59332"><ele>1379.2</ele></rtept><rtept lat="45.088473" lon="5.593345"><ele>1379.4</ele></rtept><rtept lat="45.088488" lon="5.593365"><ele>1379.6</ele></rtept><rtept lat="45.088502" lon="5.59339"><ele>1380.0</ele></rtept><rtept lat="45.088515" lon="5.593417"><ele>1380.6</ele></rtept><rtept lat="45.08853" lon="5.593437"><ele>1381.2</ele></rtept><rtept lat="45.088537" lon="5.59347"><ele>1382.2</ele></rtept><rtept lat="45.08853" lon="5.5935"><ele>1382.6</ele></rtept><rtept lat="45.088543" lon="5.59352"><ele>1383.0</ele></rtept><rtept lat="45.08855" lon="5.593547"><ele>1383.8</ele></rtept><rtept lat="45.088572" lon="5.593558"><ele>1384.2</ele></rtept><rtept lat="45.088588" lon="5.593575"><ele>1384.6</ele></rtept><rtept lat="45.088603" lon="5.593595"><ele>1385.0</ele></rtept><rtept lat="45.088627" lon="5.593605"><ele>1385.4</ele></rtept><rtept lat="45.088652" lon="5.593628"><ele>1386.0</ele></rtept><rtept lat="45.088672" lon="5.59364"><ele>1386.8</ele></rtept><rtept lat="45.08869" lon="5.59366"><ele>1387.2</ele></rtept><rtept lat="45.088703" lon="5.593678"><ele>1387.8</ele></rtept><rtept lat="45.088722" lon="5.593685"><ele>1388.8</ele></rtept><rtept lat="45.088745" lon="5.593698"><ele>1389.4</ele></rtept><rtept lat="45.08876" lon="5.593682"><ele>1389.6</ele></rtept><rtept lat="45.08878" lon="5.59368"><ele>1389.6</ele></rtept><rtept lat="45.088805" lon="5.593685"><ele>1389.6</ele></rtept><rtept lat="45.088825" lon="5.593682"><ele>1389.6</ele></rtept><rtept lat="45.088843" lon="5.593685"><ele>1389.8</ele></rtept><rtept lat="45.088863" lon="5.593695"><ele>1390.2</ele></rtept><rtept lat="45.088882" lon="5.593698"><ele>1390.2</ele></rtept><rtept lat="45.088908" lon="5.593707"><ele>1390.2</ele></rtept><rtept lat="45.08893" lon="5.593717"><ele>1390.4</ele></rtept><rtept lat="45.088965" lon="5.593722"><ele>1390.6</ele></rtept><rtept lat="45.088988" lon="5.59374"><ele>1390.8</ele></rtept><rtept lat="45.089003" lon="5.59376"><ele>1391.4</ele></rtept><rtept lat="45.08902" lon="5.593783"><ele>1392.0</ele></rtept><rtept lat="45.089033" lon="5.593807"><ele>1392.4</ele></rtept><rtept lat="45.089048" lon="5.593828"><ele>1393.0</ele></rtept><rtept lat="45.089068" lon="5.593833"><ele>1393.6</ele></rtept><rtept lat="45.089087" lon="5.593833"><ele>1393.6</ele></rtept><rtept lat="45.08911" lon="5.593828"><ele>1393.4</ele></rtept><rtept lat="45.089142" lon="5.59383"><ele>1393.4</ele></rtept><rtept lat="45.089158" lon="5.593848"><ele>1393.6</ele></rtept><rtept lat="45.08918" lon="5.593863"><ele>1393.8</ele></rtept><rtept lat="45.089197" lon="5.593883"><ele>1393.6</ele></rtept><rtept lat="45.089212" lon="5.5939"><ele>1394.0</ele></rtept><rtept lat="45.089232" lon="5.593913"><ele>1394.4</ele></rtept><rtept lat="45.08925" lon="5.593937"><ele>1394.6</ele></rtept><rtept lat="45.089263" lon="5.593918"><ele>1394.6</ele></rtept><rtept lat="45.08928" lon="5.593893"><ele>1393.8</ele></rtept><rtept lat="45.089298" lon="5.593888"><ele>1393.8</ele></rtept><rtept lat="45.089312" lon="5.593868"><ele>1393.6</ele></rtept><rtept lat="45.089298" lon="5.59393"><ele>1396.4</ele></rtept><rtept lat="45.089302" lon="5.593903"><ele>1396.4</ele></rtept><rtept lat="45.089312" lon="5.593878"><ele>1396.6</ele></rtept><rtept lat="45.089323" lon="5.5939"><ele>1397.0</ele></rtept><rtept lat="45.089337" lon="5.593863"><ele>1397.8</ele></rtept><rtept lat="45.08932" lon="5.593898"><ele>1398.0</ele></rtept><rtept lat="45.089312" lon="5.59394"><ele>1398.6</ele></rtept><rtept lat="45.089308" lon="5.59398"><ele>1398.8</ele></rtept><rtept lat="45.089302" lon="5.594018"><ele>1399.2</ele></rtept><rtept lat="45.089318" lon="5.59399"><ele>1399.2</ele></rtept><rtept lat="45.089327" lon="5.593965"><ele>1399.2</ele></rtept><rtept lat="45.089337" lon="5.593938"><ele>1398.8</ele></rtept><rtept lat="45.089327" lon="5.593917"><ele>1399.0</ele></rtept><rtept lat="45.089323" lon="5.59388"><ele>1398.8</ele></rtept><rtept lat="45.089347" lon="5.593893"><ele>1398.8</ele></rtept><rtept lat="45.089375" lon="5.593883"><ele>1398.8</ele></rtept><rtept lat="45.089395" lon="5.593877"><ele>1398.6</ele></rtept><rtept lat="45.089417" lon="5.593873"><ele>1398.4</ele></rtept><rtept lat="45.089398" lon="5.593888"><ele>1399.0</ele></rtept><rtept lat="45.089395" lon="5.593913"><ele>1399.0</ele></rtept><rtept lat="45.089382" lon="5.593937"><ele>1399.6</ele></rtept><rtept lat="45.089382" lon="5.593908"><ele>1399.6</ele></rtept><rtept lat="45.0894" lon="5.593898"><ele>1399.4</ele></rtept><rtept lat="45.08942" lon="5.593893"><ele>1399.2</ele></rtept><rtept lat="45.08943" lon="5.59387"><ele>1399.4</ele></rtept><rtept lat="45.089417" lon="5.59385"><ele>1398.8</ele></rtept><rtept lat="45.089437" lon="5.593857"><ele>1398.4</ele></rtept><rtept lat="45.089427" lon="5.593878"><ele>1398.8</ele></rtept><rtept lat="45.089417" lon="5.593857"><ele>1398.8</ele></rtept><rtept lat="45.089398" lon="5.593857"><ele>1399.0</ele></rtept><rtept lat="45.089417" lon="5.593848"><ele>1398.8</ele></rtept><rtept lat="45.08941" lon="5.593898"><ele>1399.0</ele></rtept><rtept lat="45.089427" lon="5.59388"><ele>1399.0</ele></rtept><rtept lat="45.08943" lon="5.593803"><ele>1397.8</ele></rtept><rtept lat="45.089407" lon="5.593813"><ele>1398.0</ele></rtept><rtept lat="45.089388" lon="5.59382"><ele>1398.6</ele></rtept><rtept lat="45.089398" lon="5.593847"><ele>1398.4</ele></rtept><rtept lat="45.089417" lon="5.59386"><ele>1398.6</ele></rtept><rtept lat="45.089437" lon="5.593853"><ele>1398.8</ele></rtept><rtept lat="45.089455" lon="5.593868"><ele>1398.8</ele></rtept><rtept lat="45.08943" lon="5.593873"><ele>1398.6</ele></rtept><rtept lat="45.089442" lon="5.593843"><ele>1398.8</ele></rtept><rtept lat="45.089437" lon="5.593807"><ele>1398.4</ele></rtept><rtept lat="45.089455" lon="5.593833"><ele>1398.0</ele></rtept><rtept lat="45.089437" lon="5.593843"><ele>1398.6</ele></rtept><rtept lat="45.08943" lon="5.593868"><ele>1398.8</ele></rtept><rtept lat="45.089448" lon="5.59387"><ele>1399.6</ele></rtept><rtept lat="45.089465" lon="5.59386"><ele>1399.2</ele></rtept><rtept lat="45.089448" lon="5.593873"><ele>1398.2</ele></rtept><rtept lat="45.08943" lon="5.593873"><ele>1399.0</ele></rtept><rtept lat="45.089448" lon="5.593868"><ele>1398.8</ele></rtept><rtept lat="45.089465" lon="5.593843"><ele>1398.6</ele></rtept><rtept lat="45.089458" lon="5.593813"><ele>1398.6</ele></rtept><rtept lat="45.089442" lon="5.5938"><ele>1398.0</ele></rtept><rtept lat="45.089458" lon="5.59382"><ele>1397.8</ele></rtept><rtept lat="45.089458" lon="5.593853"><ele>1398.4</ele></rtept><rtept lat="45.089455" lon="5.593828"><ele>1398.8</ele></rtept><rtept lat="45.08944" lon="5.59381"><ele>1398.2</ele></rtept><rtept lat="45.08944" lon="5.593847"><ele>1398.4</ele></rtept><rtept lat="45.08943" lon="5.59387"><ele>1398.4</ele></rtept><rtept lat="45.08941" lon="5.59388"><ele>1399.0</ele></rtept><rtept lat="45.08943" lon="5.593883"><ele>1398.8</ele></rtept><rtept lat="45.089455" lon="5.593863"><ele>1398.8</ele></rtept><rtept lat="45.089455" lon="5.593833"><ele>1399.0</ele></rtept><rtept lat="45.089442" lon="5.59381"><ele>1398.4</ele></rtept><rtept lat="45.089445" lon="5.593847"><ele>1398.6</ele></rtept><rtept lat="45.089455" lon="5.593793"><ele>1398.6</ele></rtept><rtept lat="45.089458" lon="5.593753"><ele>1397.8</ele></rtept><rtept lat="45.089465" lon="5.593727"><ele>1397.4</ele></rtept><rtept lat="45.089475" lon="5.59369"><ele>1395.6</ele></rtept><rtept lat="45.08948" lon="5.593665"><ele>1395.6</ele></rtept><rtept lat="45.089468" lon="5.593702"><ele>1396.6</ele></rtept><rtept lat="45.089465" lon="5.59374"><ele>1396.8</ele></rtept><rtept lat="45.089458" lon="5.59378"><ele>1397.4</ele></rtept><rtept lat="45.089458" lon="5.593817"><ele>1397.4</ele></rtept><rtept lat="45.089458" lon="5.593853"><ele>1398.2</ele></rtept><rtept lat="45.089455" lon="5.593813"><ele>1399.8</ele></rtept><rtept lat="45.089458" lon="5.593783"><ele>1399.8</ele></rtept><rtept lat="45.089465" lon="5.593745"><ele>1399.6</ele></rtept><rtept lat="45.089475" lon="5.593692"><ele>1399.2</ele></rtept><rtept lat="45.089487" lon="5.593635"><ele>1398.8</ele></rtept><rtept lat="45.0895" lon="5.593558"><ele>1398.4</ele></rtept><rtept lat="45.089517" lon="5.59347"><ele>1398.0</ele></rtept><rtept lat="45.08952" lon="5.593377"><ele>1397.2</ele></rtept><rtept lat="45.089522" lon="5.593282"><ele>1396.0</ele></rtept><rtept lat="45.089522" lon="5.593203"><ele>1394.4</ele></rtept><rtept lat="45.089522" lon="5.593093"><ele>1393.2</ele></rtept><rtept lat="45.089525" lon="5.593002"><ele>1391.8</ele></rtept><rtept lat="45.089538" lon="5.592902"><ele>1390.6</ele></rtept><rtept lat="45.089542" lon="5.592798"><ele>1389.2</ele></rtept><rtept lat="45.089545" lon="5.592682"><ele>1388.0</ele></rtept><rtept lat="45.089555" lon="5.59256"><ele>1386.2</ele></rtept><rtept lat="45.08956" lon="5.592458"><ele>1384.4</ele></rtept><rtept lat="45.08958" lon="5.592338"><ele>1381.0</ele></rtept><rtept lat="45.089602" lon="5.592225"><ele>1379.0</ele></rtept><rtept lat="45.089625" lon="5.592138"><ele>1377.6</ele></rtept><rtept lat="45.089657" lon="5.591977"><ele>1375.4</ele></rtept><rtept lat="45.089677" lon="5.591858"><ele>1374.2</ele></rtept><rtept lat="45.089698" lon="5.59174"><ele>1372.2</ele></rtept><rtept lat="45.089718" lon="5.59165"><ele>1370.4</ele></rtept><rtept lat="45.089743" lon="5.59151"><ele>1368.2</ele></rtept><rtept lat="45.089762" lon="5.591393"><ele>1366.6</ele></rtept><rtept lat="45.089785" lon="5.591292"><ele>1365.4</ele></rtept><rtept lat="45.089817" lon="5.591168"><ele>1364.0</ele></rtept><rtept lat="45.089858" lon="5.591027"><ele>1362.8</ele></rtept><rtept lat="45.089897" lon="5.59092"><ele>1361.8</ele></rtept><rtept lat="45.089925" lon="5.590822"><ele>1361.2</ele></rtept><rtept lat="45.089955" lon="5.590748"><ele>1361.0</ele></rtept><rtept lat="45.089997" lon="5.59063"><ele>1360.4</ele></rtept><rtept lat="45.090025" lon="5.590525"><ele>1359.4</ele></rtept><rtept lat="45.090053" lon="5.59041"><ele>1358.2</ele></rtept><rtept lat="45.090063" lon="5.590317"><ele>1356.2</ele></rtept><rtept lat="45.090077" lon="5.590202"><ele>1354.4</ele></rtept><rtept lat="45.090102" lon="5.590075"><ele>1353.6</ele></rtept><rtept lat="45.09014" lon="5.589978"><ele>1352.4</ele></rtept><rtept lat="45.090185" lon="5.58989"><ele>1351.2</ele></rtept><rtept lat="45.090237" lon="5.589832"><ele>1350.2</ele></rtept><rtept lat="45.090313" lon="5.589768"><ele>1348.6</ele></rtept><rtept lat="45.09036" lon="5.589742"><ele>1347.0</ele></rtept><rtept lat="45.09044" lon="5.589725"><ele>1346.2</ele></rtept><rtept lat="45.090515" lon="5.58973"><ele>1345.2</ele></rtept><rtept lat="45.090592" lon="5.589735"><ele>1344.0</ele></rtept><rtept lat="45.090658" lon="5.589742"><ele>1342.8</ele></rtept><rtept lat="45.090732" lon="5.58974"><ele>1341.6</ele></rtept><rtept lat="45.09078" lon="5.589735"><ele>1340.4</ele></rtept><rtept lat="45.090847" lon="5.589717"><ele>1339.2</ele></rtept><rtept lat="45.090923" lon="5.589673"><ele>1337.6</ele></rtept><rtept lat="45.090972" lon="5.589607"><ele>1335.4</ele></rtept><rtept lat="45.09101" lon="5.589513"><ele>1333.6</ele></rtept><rtept lat="45.09104" lon="5.58941"><ele>1332.6</ele></rtept><rtept lat="45.091068" lon="5.589303"><ele>1331.6</ele></rtept><rtept lat="45.091093" lon="5.589197"><ele>1330.0</ele></rtept><rtept lat="45.091117" lon="5.589095"><ele>1328.8</ele></rtept><rtept lat="45.091138" lon="5.588988"><ele>1328.0</ele></rtept><rtept lat="45.091158" lon="5.588873"><ele>1327.0</ele></rtept><rtept lat="45.091177" lon="5.588785"><ele>1326.0</ele></rtept><rtept lat="45.091202" lon="5.588658"><ele>1325.2</ele></rtept><rtept lat="45.091225" lon="5.588563"><ele>1324.2</ele></rtept><rtept lat="45.091235" lon="5.588502"><ele>1323.0</ele></rtept><rtept lat="45.091257" lon="5.588405"><ele>1321.8</ele></rtept><rtept lat="45.091282" lon="5.588303"><ele>1321.2</ele></rtept><rtept lat="45.091295" lon="5.588218"><ele>1321.0</ele></rtept><rtept lat="45.091315" lon="5.588092"><ele>1319.2</ele></rtept><rtept lat="45.09133" lon="5.587992"><ele>1316.0</ele></rtept><rtept lat="45.091347" lon="5.587897"><ele>1313.8</ele></rtept><rtept lat="45.091362" lon="5.587787"><ele>1313.0</ele></rtept><rtept lat="45.091372" lon="5.587672"><ele>1313.0</ele></rtept><rtept lat="45.091375" lon="5.58761"><ele>1311.2</ele></rtept><rtept lat="45.091388" lon="5.587473"><ele>1308.8</ele></rtept><rtept lat="45.091395" lon="5.587382"><ele>1307.0</ele></rtept><rtept lat="45.091395" lon="5.587305"><ele>1306.6</ele></rtept><rtept lat="45.0914" lon="5.587193"><ele>1306.0</ele></rtept><rtept lat="45.09141" lon="5.587062"><ele>1305.0</ele></rtept><rtept lat="45.09143" lon="5.586965"><ele>1303.2</ele></rtept><rtept lat="45.091455" lon="5.586877"><ele>1300.8</ele></rtept><rtept lat="45.09148" lon="5.586807"><ele>1300.8</ele></rtept><rtept lat="45.091567" lon="5.5865"><ele>1300.8</ele></rtept><rtept lat="45.091602" lon="5.586397"><ele>1293.4</ele></rtept><rtept lat="45.091635" lon="5.586305"><ele>1291.0</ele></rtept><rtept lat="45.091682" lon="5.586198"><ele>1289.6</ele></rtept><rtept lat="45.091715" lon="5.58611"><ele>1289.6</ele></rtept><rtept lat="45.091743" lon="5.586032"><ele>1289.6</ele></rtept><rtept lat="45.091785" lon="5.585912"><ele>1284.2</ele></rtept><rtept lat="45.09182" lon="5.585818"><ele>1282.6</ele></rtept><rtept lat="45.091842" lon="5.585747"><ele>1280.8</ele></rtept><rtept lat="45.091868" lon="5.585662"><ele>1279.2</ele></rtept><rtept lat="45.09189" lon="5.585575"><ele>1278.4</ele></rtept><rtept lat="45.091925" lon="5.58547"><ele>1277.6</ele></rtept><rtept lat="45.091952" lon="5.5854"><ele>1276.4</ele></rtept><rtept lat="45.09199" lon="5.585317"><ele>1275.4</ele></rtept><rtept lat="45.092022" lon="5.58523"><ele>1274.2</ele></rtept><rtept lat="45.09205" lon="5.585143"><ele>1272.8</ele></rtept><rtept lat="45.092082" lon="5.585058"><ele>1271.4</ele></rtept><rtept lat="45.092118" lon="5.584977"><ele>1271.0</ele></rtept><rtept lat="45.09216" lon="5.584905"><ele>1270.2</ele></rtept><rtept lat="45.092207" lon="5.584848"><ele>1269.4</ele></rtept><rtept lat="45.092265" lon="5.58481"><ele>1268.2</ele></rtept><rtept lat="45.092338" lon="5.584798"><ele>1266.8</ele></rtept><rtept lat="45.0924" lon="5.584828"><ele>1265.6</ele></rtept><rtept lat="45.092457" lon="5.58488"><ele>1264.6</ele></rtept><rtept lat="45.092495" lon="5.584937"><ele>1263.0</ele></rtept><rtept lat="45.092537" lon="5.58501"><ele>1261.0</ele></rtept><rtept lat="45.092588" lon="5.585093"><ele>1259.2</ele></rtept><rtept lat="45.09264" lon="5.585153"><ele>1258.0</ele></rtept><rtept lat="45.092687" lon="5.585208"><ele>1257.2</ele></rtept><rtept lat="45.092745" lon="5.585262"><ele>1256.4</ele></rtept><rtept lat="45.092798" lon="5.585317"><ele>1255.4</ele></rtept><rtept lat="45.092857" lon="5.58537"><ele>1254.8</ele></rtept><rtept lat="45.092902" lon="5.585413"><ele>1253.0</ele></rtept><rtept lat="45.09296" lon="5.585453"><ele>1251.6</ele></rtept><rtept lat="45.093037" lon="5.585493"><ele>1250.6</ele></rtept><rtept lat="45.09309" lon="5.585518"><ele>1249.6</ele></rtept><rtept lat="45.093138" lon="5.585538"><ele>1248.8</ele></rtept><rtept lat="45.093197" lon="5.58556"><ele>1248.4</ele></rtept><rtept lat="45.09327" lon="5.585578"><ele>1247.8</ele></rtept><rtept lat="45.093318" lon="5.585585"><ele>1246.8</ele></rtept><rtept lat="45.093378" lon="5.585588"><ele>1245.8</ele></rtept><rtept lat="45.09344" lon="5.585585"><ele>1244.8</ele></rtept><rtept lat="45.093497" lon="5.585588"><ele>1243.8</ele></rtept><rtept lat="45.09356" lon="5.585595"><ele>1243.0</ele></rtept><rtept lat="45.093615" lon="5.585608"><ele>1242.0</ele></rtept><rtept lat="45.093673" lon="5.585627"><ele>1241.4</ele></rtept><rtept lat="45.093723" lon="5.58566"><ele>1240.6</ele></rtept><rtept lat="45.093772" lon="5.585703"><ele>1240.0</ele></rtept><rtept lat="45.09381" lon="5.58575"><ele>1239.2</ele></rtept><rtept lat="45.093868" lon="5.58582"><ele>1238.8</ele></rtept><rtept lat="45.09391" lon="5.585867"><ele>1238.0</ele></rtept><rtept lat="45.093963" lon="5.585918"><ele>1237.4</ele></rtept><rtept lat="45.094028" lon="5.585975"><ele>1236.6</ele></rtept><rtept lat="45.094073" lon="5.586025"><ele>1235.8</ele></rtept><rtept lat="45.094108" lon="5.586067"><ele>1234.8</ele></rtept><rtept lat="45.094168" lon="5.58613"><ele>1234.6</ele></rtept><rtept lat="45.094213" lon="5.586177"><ele>1234.2</ele></rtept><rtept lat="45.094275" lon="5.586232"><ele>1233.2</ele></rtept><rtept lat="45.094352" lon="5.5863"><ele>1231.8</ele></rtept><rtept lat="45.094412" lon="5.586352"><ele>1230.2</ele></rtept><rtept lat="45.094473" lon="5.586397"><ele>1228.8</ele></rtept><rtept lat="45.09453" lon="5.58643"><ele>1227.8</ele></rtept><rtept lat="45.094592" lon="5.586453"><ele>1227.4</ele></rtept><rtept lat="45.094633" lon="5.586453"><ele>1227.0</ele></rtept><rtept lat="45.094707" lon="5.58642"><ele>1226.6</ele></rtept><rtept lat="45.094742" lon="5.586352"><ele>1225.6</ele></rtept><rtept lat="45.09476" lon="5.586225"><ele>1224.6</ele></rtept><rtept lat="45.094732" lon="5.586103"><ele>1223.4</ele></rtept><rtept lat="45.094687" lon="5.58601"><ele>1222.0</ele></rtept><rtept lat="45.09462" lon="5.58591"><ele>1220.4</ele></rtept><rtept lat="45.094547" lon="5.58582"><ele>1220.0</ele></rtept><rtept lat="45.094463" lon="5.585727"><ele>1219.2</ele></rtept><rtept lat="45.09438" lon="5.585638"><ele>1219.0</ele></rtept><rtept lat="45.094287" lon="5.58556"><ele>1218.6</ele></rtept><rtept lat="45.094195" lon="5.58548"><ele>1217.6</ele></rtept><rtept lat="45.094102" lon="5.58541"><ele>1216.4</ele></rtept><rtept lat="45.094008" lon="5.585342"><ele>1215.0</ele></rtept><rtept lat="45.09391" lon="5.585285"><ele>1214.0</ele></rtept><rtept lat="45.093813" lon="5.58523"><ele>1213.2</ele></rtept><rtept lat="45.093718" lon="5.585162"><ele>1212.6</ele></rtept><rtept lat="45.093632" lon="5.585083"><ele>1211.8</ele></rtept><rtept lat="45.093558" lon="5.584983"><ele>1211.4</ele></rtept><rtept lat="45.093497" lon="5.58485"><ele>1210.8</ele></rtept><rtept lat="45.093468" lon="5.584737"><ele>1210.0</ele></rtept><rtept lat="45.093472" lon="5.58464"><ele>1209.4</ele></rtept><rtept lat="45.093493" lon="5.584535"><ele>1208.6</ele></rtept><rtept lat="45.093538" lon="5.58445"><ele>1207.4</ele></rtept><rtept lat="45.093612" lon="5.58439"><ele>1205.8</ele></rtept><rtept lat="45.093673" lon="5.584398"><ele>1204.6</ele></rtept><rtept lat="45.093715" lon="5.58443"><ele>1203.6</ele></rtept><rtept lat="45.093765" lon="5.584485"><ele>1202.6</ele></rtept><rtept lat="45.093823" lon="5.584558"><ele>1201.6</ele></rtept><rtept lat="45.093875" lon="5.584612"><ele>1200.8</ele></rtept><rtept lat="45.093928" lon="5.584667"><ele>1200.2</ele></rtept><rtept lat="45.093973" lon="5.584703"><ele>1199.4</ele></rtept><rtept lat="45.094038" lon="5.584753"><ele>1198.6</ele></rtept><rtept lat="45.094102" lon="5.584793"><ele>1197.2</ele></rtept><rtept lat="45.094157" lon="5.584828"><ele>1196.2</ele></rtept><rtept lat="45.09421" lon="5.584852"><ele>1196.0</ele></rtept><rtept lat="45.094272" lon="5.58488"><ele>1195.6</ele></rtept><rtept lat="45.094328" lon="5.584908"><ele>1194.8</ele></rtept><rtept lat="45.094387" lon="5.584935"><ele>1193.8</ele></rtept><rtept lat="45.09444" lon="5.584963"><ele>1192.8</ele></rtept><rtept lat="45.094492" lon="5.584992"><ele>1192.0</ele></rtept><rtept lat="45.09455" lon="5.58502"><ele>1191.2</ele></rtept><rtept lat="45.094598" lon="5.585043"><ele>1190.0</ele></rtept><rtept lat="45.094668" lon="5.585073"><ele>1188.8</ele></rtept><rtept lat="45.094738" lon="5.585093"><ele>1187.2</ele></rtept><rtept lat="45.094802" lon="5.585113"><ele>1186.2</ele></rtept><rtept lat="45.09486" lon="5.585128"><ele>1184.6</ele></rtept><rtept lat="45.09492" lon="5.585148"><ele>1184.6</ele></rtept><rtept lat="45.094965" lon="5.58517"><ele>1184.6</ele></rtept><rtept lat="45.09502" lon="5.585202"><ele>1185.0</ele></rtept><rtept lat="45.095087" lon="5.585238"><ele>1185.0</ele></rtept><rtept lat="45.095128" lon="5.58524"><ele>1184.2</ele></rtept><rtept lat="45.09519" lon="5.585208"><ele>1182.6</ele></rtept><rtept lat="45.095228" lon="5.585133"><ele>1181.8</ele></rtept><rtept lat="45.095235" lon="5.585063"><ele>1181.4</ele></rtept><rtept lat="45.095202" lon="5.584912"><ele>1180.6</ele></rtept><rtept lat="45.095122" lon="5.584805"><ele>1178.4</ele></rtept><rtept lat="45.09503" lon="5.58472"><ele>1177.2</ele></rtept><rtept lat="45.094943" lon="5.58465"><ele>1176.2</ele></rtept><rtept lat="45.09486" lon="5.584575"><ele>1175.2</ele></rtept><rtept lat="45.09477" lon="5.584508"><ele>1175.2</ele></rtept><rtept lat="45.094678" lon="5.584448"><ele>1175.2</ele></rtept><rtept lat="45.094578" lon="5.584397"><ele>1175.2</ele></rtept><rtept lat="45.09447" lon="5.58434"><ele>1174.6</ele></rtept><rtept lat="45.09437" lon="5.58429"><ele>1173.6</ele></rtept><rtept lat="45.094268" lon="5.584248"><ele>1172.6</ele></rtept><rtept lat="45.094168" lon="5.584212"><ele>1172.2</ele></rtept><rtept lat="45.094043" lon="5.58417"><ele>1172.0</ele></rtept><rtept lat="45.093955" lon="5.58414"><ele>1171.4</ele></rtept><rtept lat="45.093852" lon="5.584105"><ele>1170.4</ele></rtept><rtept lat="45.093753" lon="5.584078"><ele>1169.0</ele></rtept><rtept lat="45.093653" lon="5.584053"><ele>1168.6</ele></rtept><rtept lat="45.093552" lon="5.584033"><ele>1168.6</ele></rtept><rtept lat="45.093448" lon="5.584013"><ele>1167.8</ele></rtept><rtept lat="45.093327" lon="5.583977"><ele>1167.4</ele></rtept><rtept lat="45.093247" lon="5.583942"><ele>1166.2</ele></rtept><rtept lat="45.093155" lon="5.583898"><ele>1165.4</ele></rtept><rtept lat="45.093065" lon="5.583838"><ele>1165.4</ele></rtept><rtept lat="45.092972" lon="5.583747"><ele>1165.0</ele></rtept><rtept lat="45.09292" lon="5.583663"><ele>1164.6</ele></rtept><rtept lat="45.09286" lon="5.58353"><ele>1163.6</ele></rtept><rtept lat="45.092832" lon="5.58341"><ele>1162.8</ele></rtept><rtept lat="45.092822" lon="5.583293"><ele>1161.4</ele></rtept><rtept lat="45.092835" lon="5.583207"><ele>1160.2</ele></rtept><rtept lat="45.09287" lon="5.583115"><ele>1159.4</ele></rtept><rtept lat="45.09292" lon="5.583048"><ele>1158.8</ele></rtept><rtept lat="45.092982" lon="5.58301"><ele>1157.6</ele></rtept><rtept lat="45.09304" lon="5.583"><ele>1156.6</ele></rtept><rtept lat="45.0931" lon="5.583017"><ele>1155.2</ele></rtept><rtept lat="45.093163" lon="5.583053"><ele>1154.4</ele></rtept><rtept lat="45.093222" lon="5.5831"><ele>1153.6</ele></rtept><rtept lat="45.093288" lon="5.583162"><ele>1152.6</ele></rtept><rtept lat="45.09333" lon="5.583217"><ele>1151.4</ele></rtept><rtept lat="45.093382" lon="5.58328"><ele>1150.6</ele></rtept><rtept lat="45.093433" lon="5.583343"><ele>1150.0</ele></rtept><rtept lat="45.09348" lon="5.583415"><ele>1149.0</ele></rtept><rtept lat="45.093528" lon="5.583472"><ele>1147.8</ele></rtept><rtept lat="45.093573" lon="5.583522"><ele>1147.4</ele></rtept><rtept lat="45.093628" lon="5.583567"><ele>1147.0</ele></rtept><rtept lat="45.09368" lon="5.58361"><ele>1146.2</ele></rtept><rtept lat="45.093733" lon="5.58366"><ele>1145.0</ele></rtept><rtept lat="45.093772" lon="5.583703"><ele>1144.0</ele></rtept><rtept lat="45.09383" lon="5.583775"><ele>1143.0</ele></rtept><rtept lat="45.093872" lon="5.583842"><ele>1142.2</ele></rtept><rtept lat="45.09391" lon="5.583913"><ele>1141.6</ele></rtept><rtept lat="45.093952" lon="5.58399"><ele>1140.8</ele></rtept><rtept lat="45.093987" lon="5.584057"><ele>1140.0</ele></rtept><rtept lat="45.094043" lon="5.584145"><ele>1139.2</ele></rtept><rtept lat="45.094102" lon="5.584208"><ele>1138.0</ele></rtept><rtept lat="45.094153" lon="5.584247"><ele>1137.2</ele></rtept><rtept lat="45.094223" lon="5.584277"><ele>1136.2</ele></rtept><rtept lat="45.094293" lon="5.584313"><ele>1135.4</ele></rtept><rtept lat="45.094352" lon="5.584358"><ele>1134.4</ele></rtept><rtept lat="45.094405" lon="5.584407"><ele>1133.8</ele></rtept><rtept lat="45.094463" lon="5.584455"><ele>1133.8</ele></rtept><rtept lat="45.094523" lon="5.5845"><ele>1133.0</ele></rtept><rtept lat="45.094582" lon="5.584545"><ele>1132.2</ele></rtept><rtept lat="45.09464" lon="5.584595"><ele>1131.2</ele></rtept><rtept lat="45.094683" lon="5.584633"><ele>1130.6</ele></rtept><rtept lat="45.094742" lon="5.584677"><ele>1130.2</ele></rtept><rtept lat="45.094808" lon="5.584723"><ele>1129.4</ele></rtept><rtept lat="45.094877" lon="5.584748"><ele>1128.6</ele></rtept><rtept lat="45.094937" lon="5.584763"><ele>1127.6</ele></rtept><rtept lat="45.094985" lon="5.584757"><ele>1126.6</ele></rtept><rtept lat="45.095058" lon="5.584708"><ele>1125.8</ele></rtept><rtept lat="45.095097" lon="5.584627"><ele>1124.8</ele></rtept><rtept lat="45.095122" lon="5.58453"><ele>1123.8</ele></rtept><rtept lat="45.095128" lon="5.584443"><ele>1122.8</ele></rtept><rtept lat="45.095107" lon="5.584317"><ele>1121.6</ele></rtept><rtept lat="45.095068" lon="5.584215"><ele>1120.6</ele></rtept><rtept lat="45.095023" lon="5.58414"><ele>1119.8</ele></rtept><rtept lat="45.094965" lon="5.584047"><ele>1119.4</ele></rtept><rtept lat="45.094902" lon="5.583927"><ele>1118.8</ele></rtept><rtept lat="45.094847" lon="5.583825"><ele>1117.4</ele></rtept><rtept lat="45.094805" lon="5.583727"><ele>1115.6</ele></rtept><rtept lat="45.094783" lon="5.583643"><ele>1115.4</ele></rtept><rtept lat="45.094767" lon="5.58354"><ele>1115.0</ele></rtept><rtept lat="45.09477" lon="5.583415"><ele>1114.6</ele></rtept><rtept lat="45.0948" lon="5.583338"><ele>1114.2</ele></rtept><rtept lat="45.094843" lon="5.58326"><ele>1113.2</ele></rtept><rtept lat="45.094905" lon="5.58322"><ele>1111.8</ele></rtept><rtept lat="45.094978" lon="5.583213"><ele>1110.2</ele></rtept><rtept lat="45.09503" lon="5.58324"><ele>1108.4</ele></rtept><rtept lat="45.09508" lon="5.58328"><ele>1107.8</ele></rtept><rtept lat="45.09511" lon="5.583327"><ele>1107.4</ele></rtept><rtept lat="45.095155" lon="5.583405"><ele>1106.4</ele></rtept><rtept lat="45.095183" lon="5.58347"><ele>1105.8</ele></rtept><rtept lat="45.095225" lon="5.583545"><ele>1105.6</ele></rtept><rtept lat="45.095273" lon="5.583617"><ele>1105.0</ele></rtept><rtept lat="45.095318" lon="5.583683"><ele>1103.4</ele></rtept><rtept lat="45.095357" lon="5.58375"><ele>1102.2</ele></rtept><rtept lat="45.095395" lon="5.583825"><ele>1101.2</ele></rtept><rtept lat="45.095427" lon="5.583902"><ele>1100.6</ele></rtept><rtept lat="45.095472" lon="5.58398"><ele>1100.0</ele></rtept><rtept lat="45.095517" lon="5.584057"><ele>1098.8</ele></rtept><rtept lat="45.095563" lon="5.584145"><ele>1097.6</ele></rtept><rtept lat="45.095605" lon="5.584222"><ele>1096.0</ele></rtept><rtept lat="45.095653" lon="5.58429"><ele>1094.8</ele></rtept><rtept lat="45.095692" lon="5.584333"><ele>1094.4</ele></rtept><rtept lat="45.095743" lon="5.584378"><ele>1093.2</ele></rtept><rtept lat="45.095817" lon="5.58441"><ele>1091.4</ele></rtept><rtept lat="45.095875" lon="5.584418"><ele>1090.6</ele></rtept><rtept lat="45.095935" lon="5.584403"><ele>1088.6</ele></rtept><rtept lat="45.096015" lon="5.584357"><ele>1086.6</ele></rtept><rtept lat="45.096057" lon="5.584297"><ele>1085.4</ele></rtept><rtept lat="45.096088" lon="5.584208"><ele>1084.0</ele></rtept><rtept lat="45.096112" lon="5.584115"><ele>1082.8</ele></rtept><rtept lat="45.096127" lon="5.584023"><ele>1081.8</ele></rtept><rtept lat="45.096133" lon="5.5839"><ele>1080.2</ele></rtept><rtept lat="45.09614" lon="5.58381"><ele>1080.0</ele></rtept><rtept lat="45.09615" lon="5.583688"><ele>1079.2</ele></rtept><rtept lat="45.096168" lon="5.583542"><ele>1077.2</ele></rtept><rtept lat="45.096188" lon="5.583428"><ele>1075.0</ele></rtept><rtept lat="45.096198" lon="5.583347"><ele>1073.6</ele></rtept><rtept lat="45.096213" lon="5.58325"><ele>1072.4</ele></rtept><rtept lat="45.09623" lon="5.58315"><ele>1071.6</ele></rtept><rtept lat="45.096245" lon="5.583047"><ele>1070.8</ele></rtept><rtept lat="45.096272" lon="5.582917"><ele>1069.6</ele></rtept><rtept lat="45.096293" lon="5.582828"><ele>1067.8</ele></rtept><rtept lat="45.09632" lon="5.582718"><ele>1066.0</ele></rtept><rtept lat="45.096352" lon="5.582587"><ele>1064.8</ele></rtept><rtept lat="45.096367" lon="5.58248"><ele>1063.6</ele></rtept><rtept lat="45.09637" lon="5.58237"><ele>1062.6</ele></rtept><rtept lat="45.09637" lon="5.582283"><ele>1061.4</ele></rtept><rtept lat="45.09637" lon="5.582157"><ele>1060.2</ele></rtept><rtept lat="45.096373" lon="5.58207"><ele>1059.4</ele></rtept><rtept lat="45.096377" lon="5.581933"><ele>1058.2</ele></rtept><rtept lat="45.096377" lon="5.581833"><ele>1056.6</ele></rtept><rtept lat="45.096373" lon="5.58169"><ele>1055.2</ele></rtept><rtept lat="45.096367" lon="5.581593"><ele>1053.6</ele></rtept><rtept lat="45.09636" lon="5.581457"><ele>1052.0</ele></rtept><rtept lat="45.096367" lon="5.581372"><ele>1051.0</ele></rtept><rtept lat="45.096377" lon="5.58127"><ele>1050.2</ele></rtept><rtept lat="45.09638" lon="5.581143"><ele>1049.4</ele></rtept><rtept lat="45.096377" lon="5.581038"><ele>1048.4</ele></rtept><rtept lat="45.09637" lon="5.580958"><ele>1047.6</ele></rtept><rtept lat="45.09637" lon="5.580867"><ele>1046.2</ele></rtept><rtept lat="45.096387" lon="5.58077"><ele>1044.4</ele></rtept><rtept lat="45.096397" lon="5.580712"><ele>1043.2</ele></rtept><rtept lat="45.096397" lon="5.580675"><ele>1042.0</ele></rtept><rtept lat="45.096393" lon="5.580635"><ele>1041.2</ele></rtept><rtept lat="45.09639" lon="5.580597"><ele>1040.2</ele></rtept><rtept lat="45.09639" lon="5.580558"><ele>1040.2</ele></rtept><rtept lat="45.09639" lon="5.580507"><ele>1040.2</ele></rtept><rtept lat="45.096387" lon="5.580477"><ele>1040.0</ele></rtept><rtept lat="45.096387" lon="5.580447"><ele>1039.8</ele></rtept><rtept lat="45.09639" lon="5.5804"><ele>1039.4</ele></rtept><rtept lat="45.09639" lon="5.580372"><ele>1038.8</ele></rtept></rte></gpx>